{"type": "FeatureCollection", "features": [{"type": "Feature", "geometry": {"type": "Point", "coordinates": [139.7008176470588, 35.665376470588235]}, "properties": {"ho_event": "success", "rsrp": -102.0, "cell": "SBY-003", "route": "Yamanote Line (Shibuya-Shinjuku-Ikebukuro)", "marker-color": "#00e676", "marker-size": "small"}}, {"type": "Feature", "geometry": {"type": "Point", "coordinates": [139.69975, 35.68]}, "properties": {"ho_event": "success", "rsrp": -71.3, "cell": "SJK-001", "route": "Yamanote Line (Shibuya-Shinjuku-Ikebukuro)", "marker-color": "#00e676", "marker-size": "small"}}, {"type": "Feature", "geometry": {"type": "Point", "coordinates": [139.69473333333335, 35.69168]}, "properties": {"ho_event": "success", "rsrp": -83.8, "cell": "SJK-002", "route": "Yamanote Line (Shibuya-Shinjuku-Ikebukuro)", "marker-color": "#00e676", "marker-size": "small"}}, {"type": "Feature", "geometry": {"type": "Point", "coordinates": [139.705, 35.712]}, "properties": {"ho_event": "success", "rsrp": -81.2, "cell": "IKB-001", "route": "Yamanote Line (Shibuya-Shinjuku-Ikebukuro)", "marker-color": "#00e676", "marker-size": "small"}}, {"type": "Feature", "geometry": {"type": "LineString", "coordinates": [[139.7004, 35.6595], [139.70022, 35.660000000000004], [139.70004, 35.6605], [139.69986, 35.661], [139.69968, 35.6615], [139.6995, 35.662], [139.6996882352941, 35.662482352941176], [139.69987647058824, 35.66296470588235], [139.70006470588234, 35.66344705882353], [139.70025294117647, 35.663929411764705], [139.70044117647058, 35.66441176470588], [139.7006294117647, 35.66489411764706], [139.7008176470588, 35.665376470588235], [139.70100588235294, 35.66585882352941], [139.70119411764705, 35.66634117647059], [139.70138235294118, 35.666823529411765], [139.70157058823528, 35.66730588235294], [139.70175882352942, 35.66778823529412], [139.70194705882352, 35.668270588235295], [139.70213529411765, 35.66875294117647], [139.70232352941176, 35.66923529411765], [139.7025117647059, 35.669717647058825], [139.7027, 35.6702], [139.70253, 35.670680000000004], [139.70236, 35.67116], [139.70219, 35.67164], [139.70202, 35.67212], [139.70184999999998, 35.6726], [139.70167999999998, 35.67308], [139.70150999999998, 35.673559999999995], [139.70134, 35.67404], [139.70117, 35.67452], [139.701, 35.675], [139.700875, 35.6755], [139.70075, 35.675999999999995], [139.700625, 35.6765], [139.7005, 35.677], [139.700375, 35.677499999999995], [139.70025, 35.678], [139.700125, 35.6785], [139.7, 35.679], [139.699875, 35.6795], [139.69975, 35.68], [139.699625, 35.6805], [139.6995, 35.681], [139.699375, 35.6815], [139.69925, 35.682], [139.699125, 35.6825], [139.699, 35.683], [139.69893846153846, 35.68350769230769], [139.69887692307694, 35.684015384615385], [139.6988153846154, 35.68452307692308], [139.69875384615386, 35.68503076923077], [139.6986923076923, 35.685538461538464], [139.6986307692308, 35.686046153846156], [139.69856923076924, 35.68655384615384], [139.69850769230771, 35.687061538461535], [139.69844615384616, 35.68756923076923], [139.69838461538464, 35.68807692307692], [139.6983230769231, 35.68858461538461], [139.69826153846157, 35.689092307692306], [139.6982, 35.6896], [139.69776666666667, 35.689859999999996], [139.69733333333335, 35.69012], [139.6969, 35.69038], [139.69646666666668, 35.69064], [139.69603333333333, 35.6909], [139.6956, 35.691159999999996], [139.69516666666667, 35.69142], [139.69473333333335, 35.69168], [139.6943, 35.69194], [139.69386666666668, 35.6922], [139.69343333333333, 35.69246], [139.693, 35.69272], [139.69256666666666, 35.69298], [139.69213333333335, 35.69324], [139.6917, 35.6935], [139.692, 35.69390909090909], [139.6923, 35.69431818181818], [139.6926, 35.69472727272727], [139.6929, 35.695136363636365], [139.6932, 35.69554545454545], [139.6935, 35.69595454545455], [139.69379999999998, 35.696363636363635], [139.6941, 35.69677272727273], [139.6944, 35.69718181818182], [139.69469999999998, 35.69759090909091], [139.695, 35.698], [139.69525, 35.6984375], [139.69549999999998, 35.698875], [139.69575, 35.6993125], [139.696, 35.69975], [139.69625, 35.7001875], [139.69650000000001, 35.700625], [139.69675, 35.7010625], [139.697, 35.701499999999996], [139.69725, 35.7019375], [139.6975, 35.702374999999996], [139.69775, 35.7028125], [139.698, 35.70325], [139.69825, 35.7036875], [139.69850000000002, 35.704125], [139.69875000000002, 35.7045625], [139.699, 35.705], [139.69933333333336, 35.70538888888889], [139.69966666666667, 35.705777777777776], [139.70000000000002, 35.70616666666667], [139.70033333333333, 35.70655555555555], [139.70066666666668, 35.706944444444446], [139.70100000000002, 35.70733333333333], [139.70133333333334, 35.70772222222222], [139.70166666666668, 35.70811111111111], [139.702, 35.7085], [139.70233333333334, 35.70888888888889], [139.7026666666667, 35.70927777777778], [139.703, 35.70966666666667], [139.70333333333335, 35.710055555555556], [139.7036666666667, 35.71044444444445], [139.704, 35.71083333333333], [139.70433333333335, 35.711222222222226], [139.70466666666667, 35.71161111111111], [139.705, 35.712], [139.70527777777778, 35.71244444444445], [139.70555555555558, 35.71288888888889], [139.70583333333335, 35.71333333333334], [139.7061111111111, 35.71377777777778], [139.7063888888889, 35.714222222222226], [139.70666666666668, 35.714666666666666], [139.70694444444445, 35.71511111111111], [139.70722222222224, 35.715555555555554], [139.7075, 35.716], [139.70777777777778, 35.71644444444445], [139.70805555555557, 35.71688888888889], [139.70833333333334, 35.717333333333336], [139.7086111111111, 35.717777777777776], [139.7088888888889, 35.718222222222224], [139.70916666666668, 35.718666666666664], [139.70944444444444, 35.71911111111111], [139.70972222222224, 35.71955555555555], [139.71, 35.72], [139.71034, 35.72038], [139.71068, 35.72076], [139.71102000000002, 35.72114], [139.71136, 35.72152], [139.7117, 35.7219], [139.71204, 35.72228], [139.71238, 35.72266], [139.71272000000002, 35.72304], [139.71306, 35.72342], [139.7134, 35.7238], [139.71374, 35.72418], [139.71408, 35.72456], [139.71442000000002, 35.724940000000004], [139.71476, 35.72532], [139.7151, 35.7257], [139.71544, 35.72608], [139.71578, 35.72646], [139.71612000000002, 35.72684], [139.71646, 35.72722], [139.7168, 35.7276], [139.71714, 35.72798], [139.71748, 35.72836], [139.71782000000002, 35.72874], [139.71816, 35.72912], [139.7185, 35.7295]]}, "properties": {"name": "Yamanote Line (Shibuya-Shinjuku-Ikebukuro)", "type": "train", "speed_kmh": 40, "n_handovers": 4, "stroke": "#00b4d8", "stroke-width": 3}}, {"type": "Feature", "geometry": {"type": "Point", "coordinates": [139.73679375, 35.659609375]}, "properties": {"ho_event": "success", "rsrp": -106.8, "cell": "MNT-002", "route": "Shuto Expressway C1 (high speed)", "marker-color": "#00e676", "marker-size": "small"}}, {"type": "Feature", "geometry": {"type": "Point", "coordinates": [139.73743103448277, 35.65966206896552]}, "properties": {"ho_event": "success", "rsrp": -103.8, "cell": "MNT-001", "route": "Shuto Expressway C1 (high speed)", "marker-color": "#00e676", "marker-size": "small"}}, {"type": "Feature", "geometry": {"type": "Point", "coordinates": [139.74475862068965, 35.66411724137931]}, "properties": {"ho_event": "success", "rsrp": -114.6, "cell": "MNT-003", "route": "Shuto Expressway C1 (high speed)", "marker-color": "#00e676", "marker-size": "small"}}, {"type": "Feature", "geometry": {"type": "Point", "coordinates": [139.75239473684212, 35.67121052631579]}, "properties": {"ho_event": "success", "rsrp": -74.3, "cell": "HO-003", "route": "Shuto Expressway C1 (high speed)", "marker-color": "#00e676", "marker-size": "small"}}, {"type": "Feature", "geometry": {"type": "Point", "coordinates": [139.76127407407407, 35.678214814814815]}, "properties": {"ho_event": "success", "rsrp": -91.1, "cell": "CTR-001", "route": "Shuto Expressway C1 (high speed)", "marker-color": "#00e676", "marker-size": "small"}}, {"type": "Feature", "geometry": {"type": "Point", "coordinates": [139.7851512820513, 35.702149999999996]}, "properties": {"ho_event": "success", "rsrp": -71.5, "cell": "SMD-001", "route": "Shuto Expressway C1 (high speed)", "marker-color": "#00e676", "marker-size": "small"}}, {"type": "Feature", "geometry": {"type": "LineString", "coordinates": [[139.7454, 35.6586], [139.74489375, 35.658659375], [139.7443875, 35.65871875], [139.74388125, 35.658778125], [139.743375, 35.6588375], [139.74286874999999, 35.658896874999996], [139.74236249999998, 35.65895625], [139.74185624999998, 35.659015625], [139.74134999999998, 35.659075], [139.74084374999998, 35.659134375], [139.74033749999998, 35.65919375], [139.73983124999998, 35.659253125], [139.73932499999998, 35.6593125], [139.73881874999998, 35.659371875], [139.73831249999998, 35.65943125], [139.73780624999998, 35.659490625], [139.7373, 35.659549999999996], [139.73679375, 35.659609375], [139.7362875, 35.65966875], [139.73578125, 35.659728125], [139.735275, 35.6597875], [139.73476875, 35.659846875], [139.7342625, 35.65990625], [139.73375625, 35.659965625], [139.73325, 35.660025], [139.73274375, 35.660084375], [139.7322375, 35.660143749999996], [139.73173125, 35.660203125], [139.731225, 35.6602625], [139.73071875, 35.660321875], [139.7302125, 35.66038125], [139.72970625, 35.660440625], [139.7292, 35.6605], [139.72972, 35.660426666666666], [139.73023999999998, 35.66035333333333], [139.73076, 35.66028], [139.73128, 35.66020666666667], [139.7318, 35.660133333333334], [139.73232, 35.66006], [139.73283999999998, 35.65998666666667], [139.73336, 35.65991333333333], [139.73388, 35.659839999999996], [139.7344, 35.65976666666666], [139.73492, 35.65969333333333], [139.73543999999998, 35.65962], [139.73596, 35.659546666666664], [139.73648, 35.65947333333333], [139.737, 35.6594], [139.73743103448277, 35.65966206896552], [139.7378620689655, 35.659924137931036], [139.73829310344829, 35.66018620689655], [139.73872413793103, 35.660448275862066], [139.7391551724138, 35.660710344827585], [139.73958620689655, 35.660972413793104], [139.74001724137932, 35.66123448275862], [139.74044827586206, 35.661496551724134], [139.74087931034484, 35.66175862068965], [139.74131034482758, 35.66202068965517], [139.74174137931035, 35.66228275862069], [139.7421724137931, 35.66254482758621], [139.74260344827587, 35.66280689655172], [139.74303448275862, 35.66306896551724], [139.7434655172414, 35.66333103448276], [139.74389655172413, 35.66359310344828], [139.7443275862069, 35.66385517241379], [139.74475862068965, 35.66411724137931], [139.74518965517242, 35.66437931034483], [139.74562068965517, 35.664641379310346], [139.74605172413794, 35.664903448275865], [139.7464827586207, 35.66516551724138], [139.74691379310346, 35.665427586206896], [139.7473448275862, 35.665689655172415], [139.74777586206898, 35.66595172413793], [139.74820689655172, 35.66621379310345], [139.7486379310345, 35.666475862068964], [139.74906896551724, 35.66673793103448], [139.7495, 35.667], [139.74978947368422, 35.66742105263158], [139.75007894736842, 35.66784210526316], [139.75036842105263, 35.668263157894735], [139.75065789473686, 35.668684210526315], [139.75094736842107, 35.669105263157896], [139.75123684210527, 35.669526315789476], [139.75152631578948, 35.669947368421056], [139.75181578947368, 35.67036842105263], [139.7521052631579, 35.67078947368421], [139.75239473684212, 35.67121052631579], [139.75268421052633, 35.67163157894737], [139.75297368421053, 35.67205263157894], [139.75326315789474, 35.67247368421052], [139.75355263157894, 35.6728947368421], [139.75384210526315, 35.67331578947368], [139.75413157894738, 35.673736842105264], [139.75442105263159, 35.67415789473684], [139.7547105263158, 35.67457894736842], [139.755, 35.675], [139.75544814814813, 35.67522962962963], [139.7558962962963, 35.675459259259256], [139.75634444444444, 35.675688888888885], [139.75679259259257, 35.675918518518515], [139.75724074074074, 35.676148148148144], [139.75768888888888, 35.67637777777777], [139.75813703703705, 35.6766074074074], [139.75858518518518, 35.67683703703703], [139.75903333333332, 35.67706666666666], [139.7594814814815, 35.67729629629629], [139.75992962962962, 35.67752592592592], [139.76037777777776, 35.67775555555555], [139.76082592592593, 35.67798518518518], [139.76127407407407, 35.678214814814815], [139.76172222222223, 35.678444444444445], [139.76217037037037, 35.678674074074074], [139.7626185185185, 35.6789037037037], [139.76306666666667, 35.67913333333333], [139.7635148148148, 35.67936296296296], [139.76396296296295, 35.67959259259259], [139.76441111111112, 35.67982222222222], [139.76485925925925, 35.68005185185185], [139.76530740740742, 35.68028148148148], [139.76575555555556, 35.68051111111111], [139.7662037037037, 35.68074074074074], [139.76665185185186, 35.68097037037037], [139.7671, 35.6812], [139.76726666666667, 35.68167777777777], [139.76743333333334, 35.68215555555555], [139.7676, 35.68263333333333], [139.76776666666666, 35.68311111111111], [139.76793333333333, 35.683588888888885], [139.7681, 35.684066666666666], [139.76826666666668, 35.68454444444444], [139.76843333333332, 35.68502222222222], [139.7686, 35.6855], [139.76876666666666, 35.68597777777777], [139.76893333333334, 35.686455555555554], [139.7691, 35.68693333333333], [139.76926666666665, 35.68741111111111], [139.76943333333332, 35.687888888888885], [139.7696, 35.68836666666667], [139.76976666666667, 35.68884444444444], [139.76993333333334, 35.68932222222222], [139.7701, 35.6898], [139.77026666666666, 35.69027777777777], [139.77043333333333, 35.690755555555555], [139.7706, 35.69123333333333], [139.77076666666667, 35.69171111111111], [139.77093333333335, 35.692188888888886], [139.7711, 35.69266666666667], [139.77126666666666, 35.69314444444444], [139.77143333333333, 35.693622222222224], [139.7716, 35.6941], [139.77176666666668, 35.69457777777777], [139.77193333333332, 35.695055555555555], [139.7721, 35.69553333333333], [139.77226666666667, 35.69601111111111], [139.77243333333334, 35.69648888888889], [139.7726, 35.69696666666667], [139.77276666666666, 35.69744444444444], [139.77293333333333, 35.697922222222225], [139.7731, 35.6984], [139.77358205128206, 35.69855], [139.7740641025641, 35.6987], [139.77454615384616, 35.69885], [139.7750282051282, 35.699], [139.77551025641026, 35.699149999999996], [139.77599230769232, 35.6993], [139.77647435897435, 35.69945], [139.77695641025642, 35.6996], [139.77743846153845, 35.69975], [139.77792051282051, 35.6999], [139.77840256410255, 35.70005], [139.7788846153846, 35.7002], [139.77936666666668, 35.70035], [139.7798487179487, 35.7005], [139.78033076923077, 35.700649999999996], [139.7808128205128, 35.7008], [139.78129487179487, 35.70095], [139.78177692307693, 35.7011], [139.78225897435897, 35.70125], [139.78274102564103, 35.7014], [139.78322307692306, 35.70155], [139.78370512820513, 35.701699999999995], [139.7841871794872, 35.70185], [139.78466923076923, 35.702], [139.7851512820513, 35.702149999999996], [139.78563333333332, 35.7023], [139.78611538461539, 35.70245], [139.78659743589745, 35.7026], [139.78707948717948, 35.70275], [139.78756153846155, 35.7029], [139.78804358974358, 35.70305], [139.78852564102564, 35.703199999999995], [139.78900769230768, 35.70335], [139.78948974358974, 35.7035], [139.7899717948718, 35.703649999999996], [139.79045384615384, 35.7038], [139.7909358974359, 35.70395], [139.79141794871794, 35.7041], [139.7919, 35.70425], [139.79238205128206, 35.7044], [139.7928641025641, 35.70455], [139.79334615384616, 35.704699999999995], [139.7938282051282, 35.70485], [139.79431025641026, 35.705], [139.79479230769232, 35.705149999999996], [139.79527435897435, 35.7053], [139.79575641025642, 35.70545], [139.79623846153845, 35.7056], [139.7967205128205, 35.705749999999995], [139.79720256410255, 35.7059], [139.7976846153846, 35.70605], [139.79816666666667, 35.706199999999995], [139.7986487179487, 35.70635], [139.79913076923077, 35.7065], [139.7996128205128, 35.706649999999996], [139.80009487179487, 35.7068], [139.80057692307693, 35.70695], [139.80105897435897, 35.7071], [139.80154102564103, 35.707249999999995], [139.80202307692306, 35.7074], [139.80250512820513, 35.70755], [139.8029871794872, 35.707699999999996], [139.80346923076922, 35.70785], [139.8039512820513, 35.708], [139.80443333333332, 35.708149999999996], [139.80491538461538, 35.708299999999994], [139.80539743589745, 35.70845], [139.80587948717948, 35.7086], [139.80636153846154, 35.708749999999995], [139.80684358974358, 35.7089], [139.80732564102564, 35.70905], [139.80780769230768, 35.709199999999996], [139.80828974358974, 35.70935], [139.8087717948718, 35.7095], [139.80925384615384, 35.709649999999996], [139.8097358974359, 35.709799999999994], [139.81021794871793, 35.70995], [139.8107, 35.7101]]}, "properties": {"name": "Shuto Expressway C1 (high speed)", "type": "vehicle", "speed_kmh": 80, "n_handovers": 6, "stroke": "#ffca28", "stroke-width": 3}}, {"type": "Feature", "geometry": {"type": "Point", "coordinates": [139.766725, 35.6765]}, "properties": {"ho_event": "success", "rsrp": -80.9, "cell": "CTR-001", "route": "Pedestrian (Ginza-Tokyo Station)", "marker-color": "#00e676", "marker-size": "small"}}, {"type": "Feature", "geometry": {"type": "LineString", "coordinates": [[139.7649, 35.6717], [139.76526666666666, 35.672133333333335], [139.76563333333334, 35.67256666666667], [139.766, 35.673], [139.766125, 35.673500000000004], [139.76625, 35.674], [139.766375, 35.674499999999995], [139.7665, 35.675], [139.766575, 35.6755], [139.76665, 35.676], [139.766725, 35.6765], [139.7668, 35.677], [139.76684999999998, 35.6775], [139.7669, 35.678], [139.76695, 35.6785], [139.767, 35.679], [139.767025, 35.67955], [139.76704999999998, 35.680099999999996], [139.767075, 35.68065], [139.7671, 35.6812]]}, "properties": {"name": "Pedestrian (Ginza-Tokyo Station)", "type": "pedestrian", "speed_kmh": 5, "n_handovers": 1, "stroke": "#e040fb", "stroke-width": 3}}, {"type": "Feature", "geometry": {"type": "Point", "coordinates": [139.7366153846154, 35.65276923076923]}, "properties": {"ho_event": "success", "rsrp": -95.3, "cell": "MNT-001", "route": "Roppongi-Shinagawa (mixed urban)", "marker-color": "#00e676", "marker-size": "small"}}, {"type": "Feature", "geometry": {"type": "Point", "coordinates": [139.73875, 35.644000000000005]}, "properties": {"ho_event": "success", "rsrp": -71.3, "cell": "SGW-001", "route": "Roppongi-Shinagawa (mixed urban)", "marker-color": "#00e676", "marker-size": "small"}}, {"type": "Feature", "geometry": {"type": "LineString", "coordinates": [[139.7292, 35.6605], [139.72972, 35.660426666666666], [139.73023999999998, 35.66035333333333], [139.73076, 35.66028], [139.73128, 35.66020666666667], [139.7318, 35.660133333333334], [139.73232, 35.66006], [139.73283999999998, 35.65998666666667], [139.73336, 35.65991333333333], [139.73388, 35.659839999999996], [139.7344, 35.65976666666666], [139.73492, 35.65969333333333], [139.73543999999998, 35.65962], [139.73596, 35.659546666666664], [139.73648, 35.65947333333333], [139.737, 35.6594], [139.73671428571427, 35.65891428571428], [139.73642857142858, 35.65842857142857], [139.73614285714285, 35.65794285714286], [139.73585714285716, 35.65745714285714], [139.73557142857143, 35.656971428571424], [139.73528571428574, 35.656485714285715], [139.735, 35.656], [139.73523076923078, 35.65553846153846], [139.73546153846155, 35.65507692307692], [139.73569230769232, 35.65461538461538], [139.7359230769231, 35.65415384615385], [139.73615384615385, 35.6536923076923], [139.73638461538462, 35.65323076923077], [139.7366153846154, 35.65276923076923], [139.73684615384616, 35.652307692307694], [139.73707692307693, 35.65184615384615], [139.7373076923077, 35.651384615384615], [139.73753846153846, 35.65092307692308], [139.73776923076923, 35.650461538461535], [139.738, 35.65], [139.7380625, 35.649499999999996], [139.738125, 35.649], [139.7381875, 35.6485], [139.73825, 35.647999999999996], [139.7383125, 35.6475], [139.738375, 35.647], [139.7384375, 35.6465], [139.7385, 35.646], [139.7385625, 35.6455], [139.738625, 35.645], [139.7386875, 35.6445], [139.73875, 35.644000000000005], [139.7388125, 35.6435], [139.738875, 35.643], [139.7389375, 35.642500000000005], [139.739, 35.642], [139.73897857142856, 35.6415], [139.73895714285715, 35.641000000000005], [139.73893571428573, 35.6405], [139.7389142857143, 35.64], [139.73889285714284, 35.6395], [139.73887142857143, 35.639], [139.73885, 35.6385], [139.73882857142857, 35.638], [139.73880714285713, 35.6375], [139.7387857142857, 35.637], [139.7387642857143, 35.6365], [139.73874285714285, 35.635999999999996], [139.7387214285714, 35.6355], [139.7387, 35.635], [139.7387, 35.634492307692305], [139.7387, 35.63398461538461], [139.7387, 35.63347692307692], [139.7387, 35.63296923076923], [139.7387, 35.632461538461534], [139.7387, 35.63195384615384], [139.7387, 35.631446153846156], [139.7387, 35.63093846153846], [139.7387, 35.63043076923077], [139.7387, 35.62992307692308], [139.7387, 35.629415384615385], [139.7387, 35.62890769230769], [139.7387, 35.6284]]}, "properties": {"name": "Roppongi-Shinagawa (mixed urban)", "type": "vehicle", "speed_kmh": 30, "n_handovers": 2, "stroke": "#ffca28", "stroke-width": 3}}, {"type": "Feature", "geometry": {"type": "Point", "coordinates": [139.76096774193547, 35.63883870967742]}, "properties": {"ho_event": "success", "rsrp": -79.9, "cell": "SGW-001", "route": "Odaiba-Central (waterfront)", "marker-color": "#00e676", "marker-size": "small"}}, {"type": "Feature", "geometry": {"type": "Point", "coordinates": [139.76032258064515, 35.63961290322581]}, "properties": {"ho_event": "success", "rsrp": -102.5, "cell": "MNT-001", "route": "Odaiba-Central (waterfront)", "marker-color": "#00e676", "marker-size": "small"}}, {"type": "Feature", "geometry": {"type": "Point", "coordinates": [139.74745000000001, 35.662800000000004]}, "properties": {"ho_event": "success", "rsrp": -97.2, "cell": "MNT-003", "route": "Odaiba-Central (waterfront)", "marker-color": "#00e676", "marker-size": "small"}}, {"type": "Feature", "geometry": {"type": "LineString", "coordinates": [[139.776, 35.619], [139.7757142857143, 35.61942857142857], [139.7754285714286, 35.61985714285714], [139.77514285714287, 35.620285714285714], [139.77485714285714, 35.620714285714286], [139.77457142857145, 35.62114285714286], [139.77428571428572, 35.62157142857143], [139.774, 35.622], [139.7737142857143, 35.62242857142857], [139.77342857142858, 35.62285714285714], [139.77314285714286, 35.623285714285714], [139.77285714285716, 35.623714285714286], [139.77257142857144, 35.62414285714286], [139.77228571428572, 35.62457142857143], [139.77200000000002, 35.625], [139.7717142857143, 35.62542857142857], [139.77142857142857, 35.62585714285714], [139.77114285714288, 35.626285714285714], [139.77085714285715, 35.626714285714286], [139.77057142857143, 35.62714285714286], [139.77028571428573, 35.62757142857143], [139.77, 35.628], [139.76967741935485, 35.62838709677419], [139.7693548387097, 35.62877419354839], [139.76903225806453, 35.62916129032258], [139.76870967741937, 35.629548387096776], [139.7683870967742, 35.629935483870966], [139.76806451612904, 35.630322580645164], [139.76774193548388, 35.630709677419354], [139.76741935483872, 35.63109677419355], [139.76709677419356, 35.63148387096774], [139.7667741935484, 35.63187096774194], [139.76645161290324, 35.63225806451613], [139.76612903225808, 35.63264516129032], [139.76580645161292, 35.63303225806452], [139.76548387096776, 35.63341935483871], [139.7651612903226, 35.633806451612905], [139.7648387096774, 35.634193548387096], [139.76451612903224, 35.63458064516129], [139.76419354838708, 35.63496774193548], [139.76387096774192, 35.63535483870968], [139.76354838709676, 35.63574193548387], [139.7632258064516, 35.63612903225806], [139.76290322580644, 35.63651612903226], [139.76258064516128, 35.63690322580645], [139.76225806451612, 35.63729032258065], [139.76193548387096, 35.63767741935484], [139.7616129032258, 35.638064516129035], [139.76129032258063, 35.638451612903225], [139.76096774193547, 35.63883870967742], [139.7606451612903, 35.63922580645161], [139.76032258064515, 35.63961290322581], [139.76, 35.64], [139.75977272727272, 35.640454545454546], [139.75954545454545, 35.64090909090909], [139.75931818181817, 35.641363636363636], [139.7590909090909, 35.64181818181818], [139.75886363636363, 35.642272727272726], [139.75863636363636, 35.64272727272727], [139.75840909090908, 35.643181818181816], [139.7581818181818, 35.64363636363636], [139.75795454545454, 35.644090909090906], [139.75772727272727, 35.64454545454545], [139.7575, 35.644999999999996], [139.75727272727272, 35.64545454545455], [139.75704545454545, 35.64590909090909], [139.75681818181818, 35.64636363636364], [139.7565909090909, 35.64681818181818], [139.75636363636363, 35.64727272727273], [139.75613636363636, 35.64772727272727], [139.75590909090909, 35.64818181818182], [139.7556818181818, 35.64863636363636], [139.75545454545454, 35.64909090909091], [139.75522727272727, 35.64954545454545], [139.755, 35.65], [139.754616, 35.650344], [139.754232, 35.650687999999995], [139.753848, 35.651032], [139.753464, 35.651376], [139.75307999999998, 35.65172], [139.752696, 35.652063999999996], [139.752312, 35.652408], [139.751928, 35.652752], [139.751544, 35.653096], [139.75116, 35.653439999999996], [139.750776, 35.653784], [139.750392, 35.654128], [139.75000799999998, 35.654472], [139.74962399999998, 35.654816], [139.74924, 35.65516], [139.748856, 35.655504], [139.748472, 35.655848], [139.748088, 35.656192], [139.747704, 35.656536], [139.74732, 35.65688], [139.74693599999998, 35.657224], [139.74655199999998, 35.657568], [139.74616799999998, 35.657912], [139.745784, 35.658256], [139.7454, 35.6586], [139.74562777777777, 35.65906666666667], [139.74585555555555, 35.659533333333336], [139.74608333333333, 35.66], [139.7463111111111, 35.660466666666665], [139.7465388888889, 35.66093333333333], [139.74676666666667, 35.6614], [139.74699444444445, 35.66186666666667], [139.74722222222223, 35.662333333333336], [139.74745000000001, 35.662800000000004], [139.74767777777777, 35.663266666666665], [139.74790555555555, 35.66373333333333], [139.74813333333333, 35.6642], [139.7483611111111, 35.66466666666667], [139.7485888888889, 35.66513333333334], [139.74881666666667, 35.6656], [139.74904444444445, 35.666066666666666], [139.74927222222223, 35.666533333333334], [139.7495, 35.667]]}, "properties": {"name": "Odaiba-Central (waterfront)", "type": "vehicle", "speed_kmh": 50, "n_handovers": 3, "stroke": "#ffca28", "stroke-width": 3}}]}