{
  "type": "FeatureCollection",
  "metadata": {
    "source": "Curated macro sites — NTT Docomo/KDDI/Rakuten/SoftBank deployments",
    "mcc": 440,
    "count": 50
  },
  "features": [
    {
      "type": "Feature",
      "geometry": {
        "type": "Point",
        "coordinates": [
          139.7003,
          35.6896
        ]
      },
      "properties": {
        "id": "JP-440-0001",
        "mcc": 440,
        "operator": "NTT Docomo",
        "radio": "NR",
        "lat": 35.6896,
        "lng": 139.7003,
        "range": 500,
        "location": "Shinjuku Station"
      }
    },
    {
      "type": "Feature",
      "geometry": {
        "type": "Point",
        "coordinates": [
          139.6993,
          35.6916
        ]
      },
      "properties": {
        "id": "JP-440-0002",
        "mcc": 440,
        "operator": "KDDI au",
        "radio": "LTE",
        "lat": 35.6916,
        "lng": 139.6993,
        "range": 800,
        "location": "Shinjuku Skyscraper District"
      }
    },
    {
      "type": "Feature",
      "geometry": {
        "type": "Point",
        "coordinates": [
          139.7035,
          35.6878
        ]
      },
      "properties": {
        "id": "JP-440-0003",
        "mcc": 440,
        "operator": "Rakuten Mobile",
        "radio": "NR",
        "lat": 35.6878,
        "lng": 139.7035,
        "range": 500,
        "location": "Takashimaya Times Square"
      }
    },
    {
      "type": "Feature",
      "geometry": {
        "type": "Point",
        "coordinates": [
          139.7057,
          35.6928
        ]
      },
      "properties": {
        "id": "JP-440-0004",
        "mcc": 440,
        "operator": "SoftBank",
        "radio": "LTE",
        "lat": 35.6928,
        "lng": 139.7057,
        "range": 800,
        "location": "Kabukicho"
      }
    },
    {
      "type": "Feature",
      "geometry": {
        "type": "Point",
        "coordinates": [
          139.7016,
          35.6581
        ]
      },
      "properties": {
        "id": "JP-440-0005",
        "mcc": 440,
        "operator": "NTT Docomo",
        "radio": "NR",
        "lat": 35.6581,
        "lng": 139.7016,
        "range": 500,
        "location": "Shibuya Station"
      }
    },
    {
      "type": "Feature",
      "geometry": {
        "type": "Point",
        "coordinates": [
          139.6989,
          35.6596
        ]
      },
      "properties": {
        "id": "JP-440-0006",
        "mcc": 440,
        "operator": "KDDI au",
        "radio": "NR",
        "lat": 35.6596,
        "lng": 139.6989,
        "range": 500,
        "location": "Shibuya Hikarie"
      }
    },
    {
      "type": "Feature",
      "geometry": {
        "type": "Point",
        "coordinates": [
          139.704,
          35.657
        ]
      },
      "properties": {
        "id": "JP-440-0007",
        "mcc": 440,
        "operator": "Rakuten Mobile",
        "radio": "LTE",
        "lat": 35.657,
        "lng": 139.704,
        "range": 800,
        "location": "Shibuya Crossing"
      }
    },
    {
      "type": "Feature",
      "geometry": {
        "type": "Point",
        "coordinates": [
          139.7055,
          35.6612
        ]
      },
      "properties": {
        "id": "JP-440-0008",
        "mcc": 440,
        "operator": "SoftBank",
        "radio": "LTE",
        "lat": 35.6612,
        "lng": 139.7055,
        "range": 800,
        "location": "Omotesando"
      }
    },
    {
      "type": "Feature",
      "geometry": {
        "type": "Point",
        "coordinates": [
          139.7101,
          35.7295
        ]
      },
      "properties": {
        "id": "JP-440-0009",
        "mcc": 440,
        "operator": "NTT Docomo",
        "radio": "NR",
        "lat": 35.7295,
        "lng": 139.7101,
        "range": 500,
        "location": "Ikebukuro Station"
      }
    },
    {
      "type": "Feature",
      "geometry": {
        "type": "Point",
        "coordinates": [
          139.7085,
          35.731
        ]
      },
      "properties": {
        "id": "JP-440-0010",
        "mcc": 440,
        "operator": "KDDI au",
        "radio": "LTE",
        "lat": 35.731,
        "lng": 139.7085,
        "range": 800,
        "location": "Sunshine City"
      }
    },
    {
      "type": "Feature",
      "geometry": {
        "type": "Point",
        "coordinates": [
          139.712,
          35.728
        ]
      },
      "properties": {
        "id": "JP-440-0011",
        "mcc": 440,
        "operator": "Rakuten Mobile",
        "radio": "NR",
        "lat": 35.728,
        "lng": 139.712,
        "range": 500,
        "location": "Ikebukuro East"
      }
    },
    {
      "type": "Feature",
      "geometry": {
        "type": "Point",
        "coordinates": [
          139.777,
          35.7141
        ]
      },
      "properties": {
        "id": "JP-440-0012",
        "mcc": 440,
        "operator": "NTT Docomo",
        "radio": "NR",
        "lat": 35.7141,
        "lng": 139.777,
        "range": 500,
        "location": "Ueno Station"
      }
    },
    {
      "type": "Feature",
      "geometry": {
        "type": "Point",
        "coordinates": [
          139.7744,
          35.7015
        ]
      },
      "properties": {
        "id": "JP-440-0013",
        "mcc": 440,
        "operator": "KDDI au",
        "radio": "LTE",
        "lat": 35.7015,
        "lng": 139.7744,
        "range": 800,
        "location": "Akihabara Electric Town"
      }
    },
    {
      "type": "Feature",
      "geometry": {
        "type": "Point",
        "coordinates": [
          139.776,
          35.703
        ]
      },
      "properties": {
        "id": "JP-440-0014",
        "mcc": 440,
        "operator": "SoftBank",
        "radio": "NR",
        "lat": 35.703,
        "lng": 139.776,
        "range": 500,
        "location": "Akihabara UDX"
      }
    },
    {
      "type": "Feature",
      "geometry": {
        "type": "Point",
        "coordinates": [
          139.7669,
          35.6812
        ]
      },
      "properties": {
        "id": "JP-440-0015",
        "mcc": 440,
        "operator": "NTT Docomo",
        "radio": "NR",
        "lat": 35.6812,
        "lng": 139.7669,
        "range": 500,
        "location": "Tokyo Station"
      }
    },
    {
      "type": "Feature",
      "geometry": {
        "type": "Point",
        "coordinates": [
          139.763,
          35.682
        ]
      },
      "properties": {
        "id": "JP-440-0016",
        "mcc": 440,
        "operator": "KDDI au",
        "radio": "NR",
        "lat": 35.682,
        "lng": 139.763,
        "range": 500,
        "location": "Marunouchi Building"
      }
    },
    {
      "type": "Feature",
      "geometry": {
        "type": "Point",
        "coordinates": [
          139.77,
          35.6798
        ]
      },
      "properties": {
        "id": "JP-440-0017",
        "mcc": 440,
        "operator": "Rakuten Mobile",
        "radio": "LTE",
        "lat": 35.6798,
        "lng": 139.77,
        "range": 800,
        "location": "Tokyo Station Yaesu"
      }
    },
    {
      "type": "Feature",
      "geometry": {
        "type": "Point",
        "coordinates": [
          139.7654,
          35.684
        ]
      },
      "properties": {
        "id": "JP-440-0018",
        "mcc": 440,
        "operator": "SoftBank",
        "radio": "LTE",
        "lat": 35.684,
        "lng": 139.7654,
        "range": 800,
        "location": "Otemachi Tower"
      }
    },
    {
      "type": "Feature",
      "geometry": {
        "type": "Point",
        "coordinates": [
          139.7386,
          35.6286
        ]
      },
      "properties": {
        "id": "JP-440-0019",
        "mcc": 440,
        "operator": "NTT Docomo",
        "radio": "NR",
        "lat": 35.6286,
        "lng": 139.7386,
        "range": 500,
        "location": "Shinagawa Station"
      }
    },
    {
      "type": "Feature",
      "geometry": {
        "type": "Point",
        "coordinates": [
          139.736,
          35.631
        ]
      },
      "properties": {
        "id": "JP-440-0020",
        "mcc": 440,
        "operator": "KDDI au",
        "radio": "LTE",
        "lat": 35.631,
        "lng": 139.736,
        "range": 800,
        "location": "Shinagawa Intercity"
      }
    },
    {
      "type": "Feature",
      "geometry": {
        "type": "Point",
        "coordinates": [
          139.7476,
          35.6455
        ]
      },
      "properties": {
        "id": "JP-440-0021",
        "mcc": 440,
        "operator": "NTT Docomo",
        "radio": "NR",
        "lat": 35.6455,
        "lng": 139.7476,
        "range": 500,
        "location": "Tamachi Station"
      }
    },
    {
      "type": "Feature",
      "geometry": {
        "type": "Point",
        "coordinates": [
          139.7321,
          35.6641
        ]
      },
      "properties": {
        "id": "JP-440-0022",
        "mcc": 440,
        "operator": "NTT Docomo",
        "radio": "NR",
        "lat": 35.6641,
        "lng": 139.7321,
        "range": 500,
        "location": "Roppongi Hills"
      }
    },
    {
      "type": "Feature",
      "geometry": {
        "type": "Point",
        "coordinates": [
          139.7299,
          35.6618
        ]
      },
      "properties": {
        "id": "JP-440-0023",
        "mcc": 440,
        "operator": "KDDI au",
        "radio": "NR",
        "lat": 35.6618,
        "lng": 139.7299,
        "range": 500,
        "location": "Roppongi Mori Tower"
      }
    },
    {
      "type": "Feature",
      "geometry": {
        "type": "Point",
        "coordinates": [
          139.7344,
          35.6599
        ]
      },
      "properties": {
        "id": "JP-440-0024",
        "mcc": 440,
        "operator": "Rakuten Mobile",
        "radio": "LTE",
        "lat": 35.6599,
        "lng": 139.7344,
        "range": 800,
        "location": "Tokyo Midtown"
      }
    },
    {
      "type": "Feature",
      "geometry": {
        "type": "Point",
        "coordinates": [
          139.7574,
          35.6661
        ]
      },
      "properties": {
        "id": "JP-440-0025",
        "mcc": 440,
        "operator": "NTT Docomo",
        "radio": "LTE",
        "lat": 35.6661,
        "lng": 139.7574,
        "range": 800,
        "location": "Shimbashi Station"
      }
    },
    {
      "type": "Feature",
      "geometry": {
        "type": "Point",
        "coordinates": [
          139.7572,
          35.6559
        ]
      },
      "properties": {
        "id": "JP-440-0026",
        "mcc": 440,
        "operator": "SoftBank",
        "radio": "NR",
        "lat": 35.6559,
        "lng": 139.7572,
        "range": 500,
        "location": "Hamamatsucho Station"
      }
    },
    {
      "type": "Feature",
      "geometry": {
        "type": "Point",
        "coordinates": [
          139.7283,
          35.6197
        ]
      },
      "properties": {
        "id": "JP-440-0027",
        "mcc": 440,
        "operator": "NTT Docomo",
        "radio": "NR",
        "lat": 35.6197,
        "lng": 139.7283,
        "range": 500,
        "location": "Osaki Station"
      }
    },
    {
      "type": "Feature",
      "geometry": {
        "type": "Point",
        "coordinates": [
          139.7176,
          35.6261
        ]
      },
      "properties": {
        "id": "JP-440-0028",
        "mcc": 440,
        "operator": "KDDI au",
        "radio": "LTE",
        "lat": 35.6261,
        "lng": 139.7176,
        "range": 800,
        "location": "Gotanda Station"
      }
    },
    {
      "type": "Feature",
      "geometry": {
        "type": "Point",
        "coordinates": [
          139.694,
          35.6934
        ]
      },
      "properties": {
        "id": "JP-440-0029",
        "mcc": 440,
        "operator": "NTT Docomo",
        "radio": "NR",
        "lat": 35.6934,
        "lng": 139.694,
        "range": 500,
        "location": "C1/C2 Shinjuku Interchange"
      }
    },
    {
      "type": "Feature",
      "geometry": {
        "type": "Point",
        "coordinates": [
          139.6918,
          35.686
        ]
      },
      "properties": {
        "id": "JP-440-0030",
        "mcc": 440,
        "operator": "Rakuten Mobile",
        "radio": "NR",
        "lat": 35.686,
        "lng": 139.6918,
        "range": 500,
        "location": "Yoyogi National Gymnasium"
      }
    },
    {
      "type": "Feature",
      "geometry": {
        "type": "Point",
        "coordinates": [
          139.7027,
          35.6703
        ]
      },
      "properties": {
        "id": "JP-440-0031",
        "mcc": 440,
        "operator": "KDDI au",
        "radio": "NR",
        "lat": 35.6703,
        "lng": 139.7027,
        "range": 500,
        "location": "Harajuku Station"
      }
    },
    {
      "type": "Feature",
      "geometry": {
        "type": "Point",
        "coordinates": [
          139.712,
          35.6644
        ]
      },
      "properties": {
        "id": "JP-440-0032",
        "mcc": 440,
        "operator": "NTT Docomo",
        "radio": "LTE",
        "lat": 35.6644,
        "lng": 139.712,
        "range": 800,
        "location": "Omotesando Hills"
      }
    },
    {
      "type": "Feature",
      "geometry": {
        "type": "Point",
        "coordinates": [
          139.715,
          35.6461
        ]
      },
      "properties": {
        "id": "JP-440-0033",
        "mcc": 440,
        "operator": "SoftBank",
        "radio": "LTE",
        "lat": 35.6461,
        "lng": 139.715,
        "range": 800,
        "location": "Ebisu Garden Place"
      }
    },
    {
      "type": "Feature",
      "geometry": {
        "type": "Point",
        "coordinates": [
          139.7157,
          35.6326
        ]
      },
      "properties": {
        "id": "JP-440-0034",
        "mcc": 440,
        "operator": "NTT Docomo",
        "radio": "NR",
        "lat": 35.6326,
        "lng": 139.7157,
        "range": 500,
        "location": "Meguro Station"
      }
    },
    {
      "type": "Feature",
      "geometry": {
        "type": "Point",
        "coordinates": [
          139.7742,
          35.6761
        ]
      },
      "properties": {
        "id": "JP-440-0035",
        "mcc": 440,
        "operator": "NTT Docomo",
        "radio": "NR",
        "lat": 35.6761,
        "lng": 139.7742,
        "range": 500,
        "location": "C1 Tatsumi PA"
      }
    },
    {
      "type": "Feature",
      "geometry": {
        "type": "Point",
        "coordinates": [
          139.768,
          35.655
        ]
      },
      "properties": {
        "id": "JP-440-0036",
        "mcc": 440,
        "operator": "KDDI au",
        "radio": "LTE",
        "lat": 35.655,
        "lng": 139.768,
        "range": 800,
        "location": "C1 Shibaura Junction"
      }
    },
    {
      "type": "Feature",
      "geometry": {
        "type": "Point",
        "coordinates": [
          139.783,
          35.672
        ]
      },
      "properties": {
        "id": "JP-440-0037",
        "mcc": 440,
        "operator": "SoftBank",
        "radio": "NR",
        "lat": 35.672,
        "lng": 139.783,
        "range": 500,
        "location": "C1 Tatsumi Junction"
      }
    },
    {
      "type": "Feature",
      "geometry": {
        "type": "Point",
        "coordinates": [
          139.7712,
          35.7282
        ]
      },
      "properties": {
        "id": "JP-440-0038",
        "mcc": 440,
        "operator": "NTT Docomo",
        "radio": "LTE",
        "lat": 35.7282,
        "lng": 139.7712,
        "range": 800,
        "location": "Nippori Station"
      }
    },
    {
      "type": "Feature",
      "geometry": {
        "type": "Point",
        "coordinates": [
          139.7489,
          35.738
        ]
      },
      "properties": {
        "id": "JP-440-0039",
        "mcc": 440,
        "operator": "KDDI au",
        "radio": "NR",
        "lat": 35.738,
        "lng": 139.7489,
        "range": 500,
        "location": "Komagome Station"
      }
    },
    {
      "type": "Feature",
      "geometry": {
        "type": "Point",
        "coordinates": [
          139.7037,
          35.7124
        ]
      },
      "properties": {
        "id": "JP-440-0040",
        "mcc": 440,
        "operator": "NTT Docomo",
        "radio": "NR",
        "lat": 35.7124,
        "lng": 139.7037,
        "range": 500,
        "location": "Takadanobaba Station"
      }
    },
    {
      "type": "Feature",
      "geometry": {
        "type": "Point",
        "coordinates": [
          139.7063,
          35.7211
        ]
      },
      "properties": {
        "id": "JP-440-0041",
        "mcc": 440,
        "operator": "Rakuten Mobile",
        "radio": "LTE",
        "lat": 35.7211,
        "lng": 139.7063,
        "range": 800,
        "location": "Mejiro Station"
      }
    },
    {
      "type": "Feature",
      "geometry": {
        "type": "Point",
        "coordinates": [
          139.7702,
          35.6863
        ]
      },
      "properties": {
        "id": "JP-440-0042",
        "mcc": 440,
        "operator": "SoftBank",
        "radio": "NR",
        "lat": 35.6863,
        "lng": 139.7702,
        "range": 500,
        "location": "Nihonbashi Tower"
      }
    },
    {
      "type": "Feature",
      "geometry": {
        "type": "Point",
        "coordinates": [
          139.7632,
          35.6733
        ]
      },
      "properties": {
        "id": "JP-440-0043",
        "mcc": 440,
        "operator": "NTT Docomo",
        "radio": "NR",
        "lat": 35.6733,
        "lng": 139.7632,
        "range": 500,
        "location": "Toranomon Hills"
      }
    },
    {
      "type": "Feature",
      "geometry": {
        "type": "Point",
        "coordinates": [
          139.7418,
          35.671
        ]
      },
      "properties": {
        "id": "JP-440-0044",
        "mcc": 440,
        "operator": "KDDI au",
        "radio": "LTE",
        "lat": 35.671,
        "lng": 139.7418,
        "range": 800,
        "location": "Azabu Juban"
      }
    },
    {
      "type": "Feature",
      "geometry": {
        "type": "Point",
        "coordinates": [
          139.7451,
          35.6927
        ]
      },
      "properties": {
        "id": "JP-440-0045",
        "mcc": 440,
        "operator": "NTT Docomo",
        "radio": "LTE",
        "lat": 35.6927,
        "lng": 139.7451,
        "range": 800,
        "location": "Yotsuya Station"
      }
    },
    {
      "type": "Feature",
      "geometry": {
        "type": "Point",
        "coordinates": [
          139.765,
          35.6975
        ]
      },
      "properties": {
        "id": "JP-440-0046",
        "mcc": 440,
        "operator": "SoftBank",
        "radio": "NR",
        "lat": 35.6975,
        "lng": 139.765,
        "range": 500,
        "location": "Ochanomizu Station"
      }
    },
    {
      "type": "Feature",
      "geometry": {
        "type": "Point",
        "coordinates": [
          139.7609,
          35.738
        ]
      },
      "properties": {
        "id": "JP-440-0047",
        "mcc": 440,
        "operator": "KDDI au",
        "radio": "NR",
        "lat": 35.738,
        "lng": 139.7609,
        "range": 500,
        "location": "Tabata Station"
      }
    },
    {
      "type": "Feature",
      "geometry": {
        "type": "Point",
        "coordinates": [
          139.767,
          35.7285
        ]
      },
      "properties": {
        "id": "JP-440-0048",
        "mcc": 440,
        "operator": "NTT Docomo",
        "radio": "LTE",
        "lat": 35.7285,
        "lng": 139.767,
        "range": 800,
        "location": "Nishi-Nippori Station"
      }
    },
    {
      "type": "Feature",
      "geometry": {
        "type": "Point",
        "coordinates": [
          139.728,
          35.7329
        ]
      },
      "properties": {
        "id": "JP-440-0049",
        "mcc": 440,
        "operator": "Rakuten Mobile",
        "radio": "NR",
        "lat": 35.7329,
        "lng": 139.728,
        "range": 500,
        "location": "Otsuka Station"
      }
    },
    {
      "type": "Feature",
      "geometry": {
        "type": "Point",
        "coordinates": [
          139.7391,
          35.7334
        ]
      },
      "properties": {
        "id": "JP-440-0050",
        "mcc": 440,
        "operator": "SoftBank",
        "radio": "LTE",
        "lat": 35.7334,
        "lng": 139.7391,
        "range": 800,
        "location": "Sugamo Station"
      }
    }
  ]
}