{"type":"FeatureCollection","features":[{"type":"Feature","geometry":{"type":"Polygon","coordinates":[[[139.6982,35.6896],[139.69466861907102,35.69414576776399],[139.6949885557575,35.69430263747973],[139.69531882256467,35.694444380414836],[139.6956583571368,35.694570540630636],[139.69600606730705,35.694680712312746],[139.6963608346104,35.694774541076455],[139.69672151788143,35.69485172510664],[139.6970869569251,35.69491201612859],[139.69745597624868,35.694955220206666],[139.69782738884285,35.694981198368076],[139.6982,35.69498986704995],[139.69857261115718,35.694981198368076],[139.69894402375135,35.694955220206666],[139.69931304307494,35.69491201612859],[139.6996784821186,35.69485172510664],[139.70003916538963,35.694774541076455],[139.70039393269298,35.694680712312746],[139.70074164286322,35.694570540630636],[139.70108117743536,35.694444380414836],[139.70141144424252,35.69430263747973],[139.701731380929,35.69414576776399],[139.6982,35.6896]]]},"properties":{"tower_id":"SJK-001","sector_index":0,"azimuth":0,"band":"n77","power_dbm":40,"range_m":600.0,"fill":"#00b4d8","fill-opacity":0.25,"stroke":"#00b4d8","stroke-width":1,"stroke-opacity":0.7}},{"type":"Feature","geometry":{"type":"Polygon","coordinates":[[[139.6982,35.6896],[139.7047662058599,35.689835102698694],[139.70477189830808,35.68952944882013],[139.7047564512012,35.68922402188065],[139.7047199142273,35.68891980433452],[139.70466240491334,35.68861777474582],[139.70458410824722,35.68831890464071],[139.70448527608258,35.68802415538238],[139.70436622632877,35.687734475078635],[139.7042273419283,35.6874507955322],[139.7040690696248,35.687174029243415],[139.70389191852635,35.68690506647503],[139.70369645846762,35.6866447723885],[139.70348331817692,35.68639398426113],[139.70325318325388,35.68615350879277],[139.703006793964,35.68592411951098],[139.7027449428576,35.685706554282824],[139.7024684722204,35.68550151294143],[139.7021782713641,35.68530965503485],[139.70187527376584,35.68513159770452],[139.7015604540656,35.684967913700135],[139.7012348249309,35.6848191295373],[139.6982,35.6896]]]},"properties":{"tower_id":"SJK-001","sector_index":1,"azimuth":120,"band":"n77","power_dbm":40,"range_m":600.0,"fill":"#00b4d8","fill-opacity":0.25,"stroke":"#00b4d8","stroke-width":1,"stroke-opacity":0.7}},{"type":"Feature","geometry":{"type":"Polygon","coordinates":[[[139.6982,35.6896],[139.69516517506912,35.6848191295373],[139.69483954593443,35.684967913700135],[139.6945247262342,35.68513159770452],[139.69422172863594,35.68530965503485],[139.69393152777963,35.68550151294143],[139.69365505714242,35.685706554282824],[139.69339320603603,35.68592411951098],[139.69314681674615,35.68615350879277],[139.6929166818231,35.68639398426113],[139.6927035415324,35.6866447723885],[139.69250808147368,35.68690506647503],[139.69233093037522,35.687174029243415],[139.69217265807174,35.6874507955322],[139.69203377367126,35.687734475078635],[139.69191472391745,35.68802415538238],[139.6918158917528,35.68831890464071],[139.6917375950867,35.68861777474582],[139.69168008577273,35.68891980433452],[139.69164354879882,35.68922402188065],[139.69162810169195,35.68952944882013],[139.69163379414013,35.689835102698694],[139.6982,35.6896]]]},"properties":{"tower_id":"SJK-001","sector_index":2,"azimuth":240,"band":"n77","power_dbm":40,"range_m":600.0,"fill":"#00b4d8","fill-opacity":0.25,"stroke":"#00b4d8","stroke-width":1,"stroke-opacity":0.7}},{"type":"Feature","geometry":{"type":"Polygon","coordinates":[[[139.6917,35.6935],[139.69137031024994,35.699692447654435],[139.69179893549068,35.699697816080004],[139.69222724248968,35.699683248245414],[139.69265385352946,35.69964879101041],[139.69307739634777,35.69959455521217],[139.69349650855193,35.69952071530876],[139.69390984200086,35.699427508817955],[139.6943160671419,35.699315235553236],[139.6947138772873,35.699184256659414],[139.69510199281757,35.699034993450894],[139.6954791652974,35.698867926056515],[139.6958441814916,35.69868359187509],[139.6961958672676,35.698482583846804],[139.69653309137217,35.69826554854591],[139.69685476907046,35.69803318410094],[139.69715986563503,35.69778623794907],[139.69744739967427,35.6975255044318],[139.6977164462893,35.697251822239934],[139.6979661400489,35.69696607171573],[139.6981956777734,35.69666917202114],[139.69840432111835,35.69636207818121],[139.6917,35.6935]]]},"properties":{"tower_id":"SJK-002","sector_index":0,"azimuth":30,"band":"n77","power_dbm":43,"range_m":690.0,"fill":"#00b4d8","fill-opacity":0.25,"stroke":"#00b4d8","stroke-width":1,"stroke-opacity":0.7}},{"type":"Feature","geometry":{"type":"Polygon","coordinates":[[[139.6917,35.6935],[139.69840432111835,35.69063792181879],[139.6981956777734,35.69033082797886],[139.6979661400489,35.69003392828427],[139.6977164462893,35.689748177760066],[139.69744739967427,35.6894744955682],[139.69715986563503,35.68921376205093],[139.69685476907046,35.68896681589906],[139.69653309137217,35.68873445145409],[139.6961958672676,35.688517416153196],[139.6958441814916,35.68831640812491],[139.6954791652974,35.688132073943486],[139.69510199281757,35.687965006549106],[139.6947138772873,35.687815743340586],[139.6943160671419,35.687684764446765],[139.69390984200086,35.687572491182046],[139.69349650855193,35.68747928469124],[139.69307739634777,35.68740544478783],[139.69265385352946,35.68735120898959],[139.69222724248968,35.68731675175459],[139.69179893549068,35.687302183919996],[139.69137031024994,35.687307552345565],[139.6917,35.6935]]]},"properties":{"tower_id":"SJK-002","sector_index":1,"azimuth":150,"band":"n77","power_dbm":43,"range_m":690.0,"fill":"#00b4d8","fill-opacity":0.25,"stroke":"#00b4d8","stroke-width":1,"stroke-opacity":0.7}},{"type":"Feature","geometry":{"type":"Polygon","coordinates":[[[139.6917,35.6935],[139.6853253686317,35.690169630526775],[139.6851053867359,35.690471355941135],[139.68490661746142,35.690782823470315],[139.68472970018126,35.691103031229524],[139.68457520397794,35.69143094921962],[139.68444362581306,35.6917655226403],[139.68433538892867,35.692105675282995],[139.68425084148592,35.69245031299267],[139.6841902554451,35.69279832718739],[139.68415382569083,35.693148598424195],[139.6841416694052,35.6935],[139.68415382569083,35.693851401575806],[139.6841902554451,35.69420167281261],[139.68425084148592,35.69454968700733],[139.68433538892867,35.694894324717005],[139.68444362581306,35.6952344773597],[139.68457520397794,35.69556905078038],[139.68472970018126,35.69589696877048],[139.68490661746142,35.696217176529686],[139.6851053867359,35.696528644058866],[139.6853253686317,35.696830369473226],[139.6917,35.6935]]]},"properties":{"tower_id":"SJK-002","sector_index":2,"azimuth":270,"band":"n77","power_dbm":43,"range_m":690.0,"fill":"#00b4d8","fill-opacity":0.25,"stroke":"#00b4d8","stroke-width":1,"stroke-opacity":0.7}},{"type":"Feature","geometry":{"type":"Polygon","coordinates":[[[139.71,35.6852],[139.7078621037298,35.689432649672845],[139.70815815281978,35.689525237157746],[139.70846012650384,35.68960391183012],[139.70876705343565,35.68966842062037],[139.70907794633598,35.68971855602573],[139.70939180516842,35.6897541567777],[139.7097076203562,35.689775108360806],[139.71002437602954,35.68978134338095],[139.7103410532935,35.68977284178221],[139.71065663350535,35.689749630911315],[139.71097010155123,35.68971178542972],[139.7112804491113,35.68965942707344],[139.71158667790337,35.68959272426144],[139.71188780289387,35.689511891553906],[139.71218285546644,35.689417188962096],[139.71247088653755,35.689308921111945],[139.71275096960952,35.68918743626419],[139.71302220375065,35.68905312519414],[139.71328371649327,35.6889064199347],[139.71353466664002,35.68874779238665],[139.71377424696993,35.6885777528007],[139.71,35.6852]]]},"properties":{"tower_id":"SJK-003","sector_index":0,"azimuth":10,"band":"n78","power_dbm":37,"range_m":510.0,"fill":"#00e676","fill-opacity":0.25,"stroke":"#00e676","stroke-width":1,"stroke-opacity":0.7}},{"type":"Feature","geometry":{"type":"Polygon","coordinates":[[[139.71,35.6852],[139.71553879810824,35.68460200900079],[139.71548854970797,35.68434546120765],[139.71542064651553,35.68409166217431],[139.71533530695228,35.68384142828569],[139.71523280552654,35.68359556445884],[139.7151134719504,35.68335486155383],[139.71497769007928,35.6831200938298],[139.71482589667713,35.68289201645443],[139.71465858001156,35.68267136307484],[139.7144762782832,35.68245884345768],[139.71427957789453,35.68225514120607],[139.7140691115636,35.68206091156067],[139.7138455562888,35.68187677929199],[139.7136096311712,35.681703336690724],[139.71336209510142,35.68154114166256],[139.71310374431854,35.68139071593358],[139.71283540984896,35.68125254337203],[139.71255795483307,35.68112706843193],[139.71227227174904,35.681014694723345],[139.7119792795419,35.68091578371416],[139.71167992066762,35.68083065356736],[139.71,35.6852]]]},"properties":{"tower_id":"SJK-003","sector_index":1,"azimuth":130,"band":"n78","power_dbm":37,"range_m":510.0,"fill":"#00e676","fill-opacity":0.25,"stroke":"#00e676","stroke-width":1,"stroke-opacity":0.7}},{"type":"Feature","geometry":{"type":"Polygon","coordinates":[[[139.71,35.6852],[139.70659909816197,35.68156534132637],[139.70635329747228,35.681729301634604],[139.7061192269807,35.681904425995576],[139.7058976396121,35.68209015109395],[139.7056892481375,35.68228587951544],[139.70549472288118,35.68249098166848],[139.70531468956455,35.6827047978094],[139.70514972729336,35.682926640164624],[139.70500036669497,35.68315579514296],[139.70486708821147,35.68339152563101],[139.70475032055427,35.68363307336421],[139.70465043932512,35.6838796613659],[139.70456776580784,35.684130496446585],[139.70450256593494,35.684384771755376],[139.70445504943217,35.684641669375345],[139.70442536914393,35.68490036295448],[139.70441362054154,35.68516002036378],[139.7044198414163,35.68541980637393],[139.70444401175772,35.68567888534196],[139.7044860538181,35.68593642389919],[139.70454583236247,35.686191593631946],[139.71,35.6852]]]},"properties":{"tower_id":"SJK-003","sector_index":2,"azimuth":250,"band":"n78","power_dbm":37,"range_m":510.0,"fill":"#00e676","fill-opacity":0.25,"stroke":"#00e676","stroke-width":1,"stroke-opacity":0.7}},{"type":"Feature","geometry":{"type":"Polygon","coordinates":[[[139.703,35.6955],[139.70211715476776,35.696636441941],[139.70219713893937,35.69667565936994],[139.70227970564116,35.69671109510371],[139.7023645892842,35.69674263515766],[139.70245151682676,35.69677017807819],[139.7025402086526,35.69679363526912],[139.70263037947035,35.69681293127666],[139.70272173923127,35.69682800403215],[139.70281399406215,35.69683880505167],[139.7029068472107,35.69684529959202],[139.703,35.69684746676249],[139.7030931527893,35.69684529959202],[139.70318600593785,35.69683880505167],[139.70327826076874,35.69682800403215],[139.70336962052966,35.69681293127666],[139.7034597913474,35.69679363526912],[139.70354848317325,35.69677017807819],[139.7036354107158,35.69674263515766],[139.70372029435885,35.69671109510371],[139.70380286106064,35.69667565936994],[139.70388284523224,35.696636441941],[139.703,35.6955]]]},"properties":{"tower_id":"SJK-004","sector_index":0,"azimuth":0,"band":"n257","power_dbm":30,"range_m":150.0,"fill":"#e040fb","fill-opacity":0.25,"stroke":"#e040fb","stroke-width":1,"stroke-opacity":0.7}},{"type":"Feature","geometry":{"type":"Polygon","coordinates":[[[139.703,35.6955],[139.7043857894279,35.696223993363745],[139.70443361157916,35.69615840088237],[139.70447682229099,35.69609069054994],[139.7045152825693,35.6960210801675],[139.70454886870044,35.69594979364791],[139.70457747264933,35.69587706029559],[139.7046010024068,35.695803114068916],[139.70461938228567,35.69572819282768],[139.70463255316412,35.69565253756796],[139.70464047267592,35.69557639164692],[139.7046431153467,35.6955],[139.70464047267592,35.69542360835309],[139.70463255316412,35.695347462432046],[139.70461938228567,35.695271807172325],[139.7046010024068,35.69519688593109],[139.70457747264933,35.69512293970442],[139.70454886870044,35.69505020635209],[139.7045152825693,35.69497891983251],[139.70447682229099,35.69490930945007],[139.70443361157916,35.69484159911764],[139.7043857894279,35.69477600663626],[139.703,35.6955]]]},"properties":{"tower_id":"SJK-004","sector_index":1,"azimuth":90,"band":"n257","power_dbm":30,"range_m":150.0,"fill":"#e040fb","fill-opacity":0.25,"stroke":"#e040fb","stroke-width":1,"stroke-opacity":0.7}},{"type":"Feature","geometry":{"type":"Polygon","coordinates":[[[139.703,35.6955],[139.70388284523224,35.694363558059],[139.70380286106064,35.69432434063007],[139.70372029435885,35.6942889048963],[139.7036354107158,35.69425736484234],[139.70354848317325,35.694229821921816],[139.7034597913474,35.69420636473089],[139.70336962052966,35.694187068723345],[139.70327826076874,35.69417199596786],[139.70318600593785,35.694161194948336],[139.7030931527893,35.694154700407985],[139.703,35.694152533237514],[139.7029068472107,35.694154700407985],[139.70281399406215,35.694161194948336],[139.70272173923127,35.69417199596786],[139.70263037947035,35.694187068723345],[139.7025402086526,35.69420636473089],[139.70245151682676,35.694229821921816],[139.7023645892842,35.69425736484234],[139.70227970564116,35.6942889048963],[139.70219713893937,35.69432434063007],[139.70211715476776,35.694363558059],[139.703,35.6955]]]},"properties":{"tower_id":"SJK-004","sector_index":2,"azimuth":180,"band":"n257","power_dbm":30,"range_m":150.0,"fill":"#e040fb","fill-opacity":0.25,"stroke":"#e040fb","stroke-width":1,"stroke-opacity":0.7}},{"type":"Feature","geometry":{"type":"Polygon","coordinates":[[[139.703,35.6955],[139.7016142105721,35.69477600663626],[139.70156638842084,35.69484159911764],[139.70152317770902,35.69490930945007],[139.7014847174307,35.69497891983251],[139.70145113129956,35.69505020635209],[139.70142252735067,35.69512293970442],[139.7013989975932,35.69519688593109],[139.70138061771434,35.695271807172325],[139.7013674468359,35.695347462432046],[139.7013595273241,35.69542360835309],[139.7013568846533,35.6955],[139.7013595273241,35.69557639164692],[139.7013674468359,35.69565253756796],[139.70138061771434,35.69572819282768],[139.7013989975932,35.695803114068916],[139.70142252735067,35.69587706029559],[139.70145113129956,35.69594979364791],[139.7014847174307,35.6960210801675],[139.70152317770902,35.69609069054994],[139.70156638842084,35.69615840088237],[139.7016142105721,35.696223993363745],[139.703,35.6955]]]},"properties":{"tower_id":"SJK-004","sector_index":3,"azimuth":270,"band":"n257","power_dbm":30,"range_m":150.0,"fill":"#e040fb","fill-opacity":0.25,"stroke":"#e040fb","stroke-width":1,"stroke-opacity":0.7}},{"type":"Feature","geometry":{"type":"Polygon","coordinates":[[[139.7004,35.6595],[139.69876407784403,35.66555142153174],[139.6991850545485,35.66561774607372],[139.69960993931807,35.66566439191344],[139.7000373654433,35.66569120900714],[139.70046595804024,35.66569811109338],[139.70089433847266,35.66568507597049],[139.70132112878682,35.665652145568025],[139.7017449561439,35.665599425811855],[139.70216445723585,35.66552708628346],[139.70257828267074,35.66543535967441],[139.70298510131335,35.66532454103793],[139.70338360456682,35.665194986839765],[139.70377251058216,35.66504711381158],[139.70415056838138,35.66488139761047],[139.7045165618815,35.66469837128892],[139.70486931380623,35.66449862358017],[139.705207689473,35.66428279700447],[139.70553060044273,35.66405158580229],[139.70583700802098,35.663805733701196],[139.70612592659901,35.66354603152353],[139.70639642682443,35.663273314642616],[139.7004,35.6595]]]},"properties":{"tower_id":"SBY-001","sector_index":0,"azimuth":20,"band":"n77","power_dbm":43,"range_m":690.0,"fill":"#00b4d8","fill-opacity":0.25,"stroke":"#00b4d8","stroke-width":1,"stroke-opacity":0.7}},{"type":"Feature","geometry":{"type":"Polygon","coordinates":[[[139.7004,35.6595],[139.70760850800764,35.65763612107745],[139.70746806106564,35.657303981169434],[139.70730487858225,35.6569789051049],[139.7071194854598,35.65666193854266],[139.70691247804476,35.65635410105603],[139.70668452220931,35.65605638285319],[139.7064363512097,35.65576974159203],[139.7061687633273,35.655495099299735],[139.70588261930112,35.655233339406855],[139.70557883955883,35.65498530390569],[139.70525840125626,35.654751790641825],[139.7049223351341,35.654533550747786],[139.7045717222025,35.654331286226856],[139.7042076902636,35.65414564769502],[139.70383141028393,35.65397723228809],[139.7034440926279,35.653826581740994],[139.7030469831643,35.653694180645154],[139.70264135925876,35.65358045488973],[139.70222852566508,35.65348577029168],[139.70180981032803,35.65341043141906],[139.70138656011207,35.65335468061132],[139.7004,35.6595]]]},"properties":{"tower_id":"SBY-001","sector_index":1,"azimuth":140,"band":"n77","power_dbm":43,"range_m":690.0,"fill":"#00b4d8","fill-opacity":0.25,"stroke":"#00b4d8","stroke-width":1,"stroke-opacity":0.7}},{"type":"Feature","geometry":{"type":"Polygon","coordinates":[[[139.7004,35.6595],[139.69482741414834,35.655312457390814],[139.69454688438583,35.65557827275685],[139.6942851820997,35.65585670298166],[139.6940431490969,35.6561468524502],[139.693821563915,35.6564477878506],[139.69362113931803,35.65675854117633],[139.6934425200035,35.65707811283994],[139.69328628052878,35.657405474888414],[139.69315292346303,35.65773957430969],[139.69304287777044,35.6580793364199],[139.6929564974304,35.658423668320246],[139.69289406029907,35.65877146241245],[139.69285576721535,35.659121599961566],[139.69284174135507,35.659472954694515],[139.6928520278346,35.659824396423],[139.69288659356585,35.66017479467884],[139.69294532736268,35.660523022350375],[139.6930280402985,35.660867959307986],[139.69313446631398,35.661208496007134],[139.69326426307293,35.66154353705741],[139.6934170130635,35.661872004746066],[139.7004,35.6595]]]},"properties":{"tower_id":"SBY-001","sector_index":2,"azimuth":260,"band":"n77","power_dbm":43,"range_m":690.0,"fill":"#00b4d8","fill-opacity":0.25,"stroke":"#00b4d8","stroke-width":1,"stroke-opacity":0.7}},{"type":"Feature","geometry":{"type":"Polygon","coordinates":[[[139.703,35.6565],[139.699468619071,35.661045767763994],[139.6997885557575,35.66120263747973],[139.70011882256466,35.66134438041484],[139.7004583571368,35.66147054063064],[139.70080606730704,35.66158071231275],[139.7011608346104,35.66167454107646],[139.70152151788142,35.66175172510664],[139.70188695692508,35.66181201612859],[139.70225597624867,35.66185522020667],[139.70262738884284,35.66188119836808],[139.703,35.66188986704995],[139.70337261115716,35.66188119836808],[139.70374402375134,35.66185522020667],[139.70411304307493,35.66181201612859],[139.7044784821186,35.66175172510664],[139.70483916538961,35.66167454107646],[139.70519393269296,35.66158071231275],[139.7055416428632,35.66147054063064],[139.70588117743534,35.66134438041484],[139.7062114442425,35.66120263747973],[139.706531380929,35.661045767763994],[139.703,35.6565]]]},"properties":{"tower_id":"SBY-002","sector_index":0,"azimuth":0,"band":"n78","power_dbm":40,"range_m":600.0,"fill":"#00e676","fill-opacity":0.25,"stroke":"#00e676","stroke-width":1,"stroke-opacity":0.7}},{"type":"Feature","geometry":{"type":"Polygon","coordinates":[[[139.703,35.6565],[139.7095662058599,35.6567351026987],[139.70957189830807,35.656429448820134],[139.7095564512012,35.65612402188065],[139.7095199142273,35.65581980433452],[139.70946240491332,35.655517774745825],[139.7093841082472,35.65521890464071],[139.70928527608257,35.65492415538238],[139.70916622632876,35.65463447507864],[139.70902734192828,35.6543507955322],[139.7088690696248,35.65407402924342],[139.70869191852634,35.65380506647503],[139.7084964584676,35.6535447723885],[139.7082833181769,35.65329398426113],[139.70805318325387,35.65305350879277],[139.70780679396398,35.65282411951098],[139.7075449428576,35.652606554282826],[139.7072684722204,35.65240151294143],[139.70697827136408,35.65220965503485],[139.70667527376582,35.65203159770452],[139.7063604540656,35.65186791370014],[139.7060348249309,35.651719129537305],[139.703,35.6565]]]},"properties":{"tower_id":"SBY-002","sector_index":1,"azimuth":120,"band":"n78","power_dbm":40,"range_m":600.0,"fill":"#00e676","fill-opacity":0.25,"stroke":"#00e676","stroke-width":1,"stroke-opacity":0.7}},{"type":"Feature","geometry":{"type":"Polygon","coordinates":[[[139.703,35.6565],[139.6999651750691,35.651719129537305],[139.69963954593442,35.65186791370014],[139.69932472623418,35.65203159770452],[139.69902172863593,35.65220965503485],[139.69873152777961,35.65240151294143],[139.6984550571424,35.652606554282826],[139.69819320603602,35.65282411951098],[139.69794681674614,35.65305350879277],[139.6977166818231,35.65329398426113],[139.6975035415324,35.6535447723885],[139.69730808147366,35.65380506647503],[139.6971309303752,35.65407402924342],[139.69697265807173,35.6543507955322],[139.69683377367124,35.65463447507864],[139.69671472391744,35.65492415538238],[139.6966158917528,35.65521890464071],[139.69653759508668,35.655517774745825],[139.69648008577272,35.65581980433452],[139.6964435487988,35.65612402188065],[139.69642810169194,35.656429448820134],[139.69643379414012,35.6567351026987],[139.703,35.6565]]]},"properties":{"tower_id":"SBY-002","sector_index":2,"azimuth":240,"band":"n78","power_dbm":40,"range_m":600.0,"fill":"#00e676","fill-opacity":0.25,"stroke":"#00e676","stroke-width":1,"stroke-opacity":0.7}},{"type":"Feature","geometry":{"type":"Polygon","coordinates":[[[139.7027,35.6702],[139.70199372381418,35.6711091535528],[139.7020577111515,35.67114052749595],[139.70212376451292,35.671168876082966],[139.70219167142736,35.67119410812613],[139.7022612134614,35.67121614246255],[139.70233216692208,35.67123490821529],[139.7024043035763,35.67125034502133],[139.702477391385,35.67126240322572],[139.70255119524973,35.67127104404133],[139.70262547776855,35.67127623967362],[139.7027,35.67127797340999],[139.70277452223144,35.67127623967362],[139.70284880475026,35.67127104404133],[139.70292260861498,35.67126240322572],[139.7029956964237,35.67125034502133],[139.7030678330779,35.67123490821529],[139.70313878653857,35.67121614246255],[139.70320832857263,35.67119410812613],[139.70327623548707,35.671168876082966],[139.7033422888485,35.67114052749595],[139.7034062761858,35.6711091535528],[139.7027,35.6702]]]},"properties":{"tower_id":"SBY-003","sector_index":0,"azimuth":0,"band":"n257","power_dbm":28,"range_m":120.0,"fill":"#e040fb","fill-opacity":0.25,"stroke":"#e040fb","stroke-width":1,"stroke-opacity":0.7}},{"type":"Feature","geometry":{"type":"Polygon","coordinates":[[[139.7027,35.6702],[139.7038086315423,35.670779194690994],[139.7038468892633,35.67072672070589],[139.70388145783278,35.670672552439946],[139.70391222605542,35.670616864134],[139.70393909496036,35.67055983491833],[139.70396197811945,35.67050164823647],[139.70398080192544,35.67044249125513],[139.70399550582852,35.67038255426215],[139.7040060425313,35.670322030054365],[139.70401237814073,35.67026111331753],[139.70401449227734,35.6702],[139.70401237814073,35.67013888668247],[139.7040060425313,35.67007796994564],[139.70399550582852,35.670017445737855],[139.70398080192544,35.66995750874487],[139.70396197811945,35.669898351763536],[139.70393909496036,35.66984016508167],[139.70391222605542,35.669783135866005],[139.70388145783278,35.66972744756006],[139.7038468892633,35.66967327929411],[139.7038086315423,35.66962080530901],[139.7027,35.6702]]]},"properties":{"tower_id":"SBY-003","sector_index":1,"azimuth":90,"band":"n257","power_dbm":28,"range_m":120.0,"fill":"#e040fb","fill-opacity":0.25,"stroke":"#e040fb","stroke-width":1,"stroke-opacity":0.7}},{"type":"Feature","geometry":{"type":"Polygon","coordinates":[[[139.7027,35.6702],[139.7034062761858,35.669290846447204],[139.7033422888485,35.66925947250405],[139.70327623548707,35.66923112391704],[139.70320832857263,35.66920589187387],[139.70313878653857,35.669183857537455],[139.7030678330779,35.66916509178471],[139.7029956964237,35.669149654978675],[139.70292260861498,35.669137596774284],[139.70284880475026,35.66912895595867],[139.70277452223144,35.669123760326386],[139.7027,35.66912202659001],[139.70262547776855,35.669123760326386],[139.70255119524973,35.66912895595867],[139.702477391385,35.669137596774284],[139.7024043035763,35.669149654978675],[139.70233216692208,35.66916509178471],[139.7022612134614,35.669183857537455],[139.70219167142736,35.66920589187387],[139.70212376451292,35.66923112391704],[139.7020577111515,35.66925947250405],[139.70199372381418,35.669290846447204],[139.7027,35.6702]]]},"properties":{"tower_id":"SBY-003","sector_index":2,"azimuth":180,"band":"n257","power_dbm":28,"range_m":120.0,"fill":"#e040fb","fill-opacity":0.25,"stroke":"#e040fb","stroke-width":1,"stroke-opacity":0.7}},{"type":"Feature","geometry":{"type":"Polygon","coordinates":[[[139.7027,35.6702],[139.70159136845768,35.66962080530901],[139.70155311073668,35.66967327929411],[139.7015185421672,35.66972744756006],[139.70148777394456,35.669783135866005],[139.70146090503962,35.66984016508167],[139.70143802188053,35.669898351763536],[139.70141919807455,35.66995750874487],[139.70140449417147,35.670017445737855],[139.7013939574687,35.67007796994564],[139.70138762185925,35.67013888668247],[139.70138550772265,35.6702],[139.70138762185925,35.67026111331753],[139.7013939574687,35.670322030054365],[139.70140449417147,35.67038255426215],[139.70141919807455,35.67044249125513],[139.70143802188053,35.67050164823647],[139.70146090503962,35.67055983491833],[139.70148777394456,35.670616864134],[139.7015185421672,35.670672552439946],[139.70155311073668,35.67072672070589],[139.70159136845768,35.670779194690994],[139.7027,35.6702]]]},"properties":{"tower_id":"SBY-003","sector_index":3,"azimuth":270,"band":"n257","power_dbm":28,"range_m":120.0,"fill":"#e040fb","fill-opacity":0.25,"stroke":"#e040fb","stroke-width":1,"stroke-opacity":0.7}},{"type":"Feature","geometry":{"type":"Polygon","coordinates":[[[139.7454,35.6586],[139.7408092047923,35.66450949809319],[139.74122512248474,35.66471342872365],[139.74165446933404,35.664897694539285],[139.74209586427781,35.66506170281983],[139.74254788749914,35.665204926006574],[139.74300908499347,35.6653269033994],[139.74347797324583,35.66542724263863],[139.74395304400258,35.66550562096717],[139.74443276912322,35.66556178626866],[139.74491560549566,35.665595557878504],[139.7454,35.66560682716493],[139.74588439450432,35.665595557878504],[139.74636723087676,35.66556178626866],[139.7468469559974,35.66550562096717],[139.74732202675415,35.66542724263863],[139.7477909150065,35.6653269033994],[139.74825211250084,35.665204926006574],[139.74870413572216,35.66506170281983],[139.74914553066594,35.664897694539285],[139.74957487751524,35.66471342872365],[139.74999079520768,35.66450949809319],[139.7454,35.6586]]]},"properties":{"tower_id":"MNT-001","sector_index":0,"azimuth":0,"band":"n77","power_dbm":46,"range_m":780.0,"fill":"#00b4d8","fill-opacity":0.25,"stroke":"#00b4d8","stroke-width":1,"stroke-opacity":0.7}},{"type":"Feature","geometry":{"type":"Polygon","coordinates":[[[139.7454,35.6586],[139.74934527241015,35.6648151316015],[139.74976859028524,35.66462171218982],[139.75017785589557,35.66440892298412],[139.75057175277328,35.6641774484547],[139.75094901388647,35.66392803317614],[139.75130842571485,35.66366147943233],[139.75164883215317,35.66337864463572],[139.75196913823,35.663080438569395],[139.75226831362997,35.66276782046053],[139.7525453960079,35.66244179589495],[139.75279949408426,35.662103413582464],[139.75302979051222,35.661753761983555],[139.75323554450674,35.66139396580814],[139.7534160942274,35.66102518239778],[139.75357085890732,35.66064859800291],[139.75369934072137,35.66026542396707],[139.75380112638732,35.65987689283043],[139.75387588849546,35.659484254365125],[139.75392338656152,35.65908877155516],[139.7539434678005,35.65869171653383],[139.75393606761784,35.65829436649169],[139.7454,35.6586]]]},"properties":{"tower_id":"MNT-001","sector_index":1,"azimuth":60,"band":"n77","power_dbm":46,"range_m":780.0,"fill":"#00b4d8","fill-opacity":0.25,"stroke":"#00b4d8","stroke-width":1,"stroke-opacity":0.7}},{"type":"Feature","geometry":{"type":"Polygon","coordinates":[[[139.7454,35.6586],[139.75393606761784,35.65890563350831],[139.7539434678005,35.65850828346617],[139.75392338656152,35.65811122844484],[139.75387588849546,35.657715745634874],[139.75380112638732,35.65732310716957],[139.75369934072137,35.65693457603293],[139.75357085890732,35.65655140199709],[139.7534160942274,35.65617481760222],[139.75323554450674,35.65580603419186],[139.75302979051222,35.655446238016445],[139.75279949408426,35.655096586417535],[139.7525453960079,35.65475820410505],[139.75226831362997,35.65443217953947],[139.75196913823,35.654119561430605],[139.75164883215317,35.65382135536428],[139.75130842571485,35.65353852056767],[139.75094901388647,35.65327196682386],[139.75057175277328,35.6530225515453],[139.75017785589557,35.65279107701588],[139.74976859028524,35.65257828781018],[139.74934527241015,35.6523848683985],[139.7454,35.6586]]]},"properties":{"tower_id":"MNT-001","sector_index":2,"azimuth":120,"band":"n77","power_dbm":46,"range_m":780.0,"fill":"#00b4d8","fill-opacity":0.25,"stroke":"#00b4d8","stroke-width":1,"stroke-opacity":0.7}},{"type":"Feature","geometry":{"type":"Polygon","coordinates":[[[139.7454,35.6586],[139.74999079520768,35.65269050190681],[139.74957487751524,35.65248657127635],[139.74914553066594,35.652302305460715],[139.74870413572216,35.65213829718017],[139.74825211250084,35.651995073993426],[139.7477909150065,35.6518730966006],[139.74732202675415,35.65177275736137],[139.7468469559974,35.65169437903283],[139.74636723087676,35.65163821373134],[139.74588439450432,35.651604442121496],[139.7454,35.65159317283507],[139.74491560549566,35.651604442121496],[139.74443276912322,35.65163821373134],[139.74395304400258,35.65169437903283],[139.74347797324583,35.65177275736137],[139.74300908499347,35.6518730966006],[139.74254788749914,35.651995073993426],[139.74209586427781,35.65213829718017],[139.74165446933404,35.652302305460715],[139.74122512248474,35.65248657127635],[139.7408092047923,35.65269050190681],[139.7454,35.6586]]]},"properties":{"tower_id":"MNT-001","sector_index":3,"azimuth":180,"band":"n77","power_dbm":46,"range_m":780.0,"fill":"#00b4d8","fill-opacity":0.25,"stroke":"#00b4d8","stroke-width":1,"stroke-opacity":0.7}},{"type":"Feature","geometry":{"type":"Polygon","coordinates":[[[139.7454,35.6586],[139.74145472758983,35.6523848683985],[139.74103140971474,35.65257828781018],[139.7406221441044,35.65279107701588],[139.7402282472267,35.6530225515453],[139.7398509861135,35.65327196682386],[139.73949157428513,35.65353852056767],[139.7391511678468,35.65382135536428],[139.73883086176997,35.654119561430605],[139.73853168637,35.65443217953947],[139.7382546039921,35.65475820410505],[139.73800050591572,35.655096586417535],[139.73777020948776,35.655446238016445],[139.73756445549324,35.65580603419186],[139.7373839057726,35.65617481760222],[139.73722914109266,35.65655140199709],[139.7371006592786,35.65693457603293],[139.73699887361266,35.65732310716957],[139.73692411150452,35.657715745634874],[139.73687661343845,35.65811122844484],[139.73685653219948,35.65850828346617],[139.73686393238214,35.65890563350831],[139.7454,35.6586]]]},"properties":{"tower_id":"MNT-001","sector_index":4,"azimuth":240,"band":"n77","power_dbm":46,"range_m":780.0,"fill":"#00b4d8","fill-opacity":0.25,"stroke":"#00b4d8","stroke-width":1,"stroke-opacity":0.7}},{"type":"Feature","geometry":{"type":"Polygon","coordinates":[[[139.7454,35.6586],[139.73686393238214,35.65829436649169],[139.73685653219948,35.65869171653383],[139.73687661343845,35.65908877155516],[139.73692411150452,35.659484254365125],[139.73699887361266,35.65987689283043],[139.7371006592786,35.66026542396707],[139.73722914109266,35.66064859800291],[139.7373839057726,35.66102518239778],[139.73756445549324,35.66139396580814],[139.73777020948776,35.661753761983555],[139.73800050591572,35.662103413582464],[139.7382546039921,35.66244179589495],[139.73853168637,35.66276782046053],[139.73883086176997,35.663080438569395],[139.7391511678468,35.66337864463572],[139.73949157428513,35.66366147943233],[139.7398509861135,35.66392803317614],[139.7402282472267,35.6641774484547],[139.7406221441044,35.66440892298412],[139.74103140971474,35.66462171218982],[139.74145472758983,35.6648151316015],[139.7454,35.6586]]]},"properties":{"tower_id":"MNT-001","sector_index":5,"azimuth":300,"band":"n77","power_dbm":46,"range_m":780.0,"fill":"#00b4d8","fill-opacity":0.25,"stroke":"#00b4d8","stroke-width":1,"stroke-opacity":0.7}},{"type":"Feature","geometry":{"type":"Polygon","coordinates":[[[139.7292,35.6605],[139.72722362274396,35.665640407567814],[139.72758216698634,35.66572402574402],[139.72794591524564,35.6657908400114],[139.7283136974678,35.66584063545124],[139.72868433062288,35.665873251888605],[139.72905662251046,35.66588858440755],[139.7294293755945,35.66588658368857],[139.7298013908555,35.66586725616731],[139.73017147164725,35.66583066401381],[139.7305384275461,35.665776924932544],[139.7309010781801,35.66570621178381],[139.73125825702584,35.665618752027676],[139.73160881516085,35.66551482699236],[139.73195162495915,35.66539477096923],[139.7322855837186,35.66525897013758],[139.73260961720774,35.66510786132235],[139.73292268312142,35.66494193058905],[139.73322377443336,35.664761711680256],[139.7335119226355,35.66456778429872],[139.73378620085336,35.664360772242674],[139.73404572682753,35.664141341399294],[139.7292,35.6605]]]},"properties":{"tower_id":"MNT-002","sector_index":0,"azimuth":15,"band":"n77","power_dbm":40,"range_m":600.0,"fill":"#00b4d8","fill-opacity":0.25,"stroke":"#00b4d8","stroke-width":1,"stroke-opacity":0.7}},{"type":"Feature","geometry":{"type":"Polygon","coordinates":[[[139.7292,35.6605],[139.73561666780887,35.659333419256534],[139.7355256998781,35.65903697206325],[139.7354143843286,35.65874523093178],[139.73528307922456,35.65845913429382],[139.73513220692968,35.658179602424674],[139.73496225274863,35.65790753448301],[139.73477376336612,35.65764380561858],[139.73456734508815,35.65738926415718],[139.7343436618919,35.65714472887188],[139.7341034332899,35.65691098634926],[139.73384743201566,35.65668878845929],[139.73357648153797,35.65647884993678],[139.733291453412,35.65628184608236],[139.73299326447608,35.65609841059022],[139.7326828739023,35.65592913350976],[139.7323612801112,35.655774559347606],[139.73202951756033,35.655635185316115],[139.7316886534167,35.655511459734],[139.73133978412392,35.655403780584265],[139.73098403187555,35.65531249423399],[139.73062254100518,35.65523789432023],[139.7292,35.6605]]]},"properties":{"tower_id":"MNT-002","sector_index":1,"azimuth":135,"band":"n77","power_dbm":40,"range_m":600.0,"fill":"#00b4d8","fill-opacity":0.25,"stroke":"#00b4d8","stroke-width":1,"stroke-opacity":0.7}},{"type":"Feature","geometry":{"type":"Polygon","coordinates":[[[139.7292,35.6605],[139.72475970944714,35.656526173175656],[139.72449213313556,35.65673900219273],[139.72423970042573,35.65696392905682],[139.72400322330762,35.65720023025494],[139.72378346244744,35.65744714568672],[139.7235811247409,35.65770388110945],[139.72339686103936,35.65796961069285],[139.72323126405635,35.658243479675505],[139.72308486646085,35.658524607114316],[139.72295813916395,35.65881208871819],[139.7228514898042,35.659104999756906],[139.72276526143617,35.65940239803553],[139.72269973142713,35.65970332692528],[139.72265511056474,35.66000681844055],[139.7226315423791,35.66031189635266],[139.72262910268103,35.660617579330044],[139.7226477993182,35.66092288409483],[139.72268757214994,35.66122682858573],[139.72274829324056,35.66152843511701],[139.72282976727107,35.661826733523334],[139.72293173216727,35.66212076428047],[139.7292,35.6605]]]},"properties":{"tower_id":"MNT-002","sector_index":2,"azimuth":255,"band":"n77","power_dbm":40,"range_m":600.0,"fill":"#00b4d8","fill-opacity":0.25,"stroke":"#00b4d8","stroke-width":1,"stroke-opacity":0.7}},{"type":"Feature","geometry":{"type":"Polygon","coordinates":[[[139.7495,35.667],[139.74596861907102,35.671545767763995],[139.7462885557575,35.67170263747973],[139.74661882256467,35.67184438041484],[139.7469583571368,35.67197054063064],[139.74730606730705,35.67208071231275],[139.7476608346104,35.67217454107646],[139.74802151788143,35.67225172510664],[139.7483869569251,35.67231201612859],[139.74875597624867,35.67235522020667],[139.74912738884285,35.67238119836808],[139.7495,35.67238986704995],[139.74987261115717,35.67238119836808],[139.75024402375135,35.67235522020667],[139.75061304307494,35.67231201612859],[139.7509784821186,35.67225172510664],[139.75133916538962,35.67217454107646],[139.75169393269297,35.67208071231275],[139.75204164286322,35.67197054063064],[139.75238117743535,35.67184438041484],[139.75271144424252,35.67170263747973],[139.753031380929,35.671545767763995],[139.7495,35.667]]]},"properties":{"tower_id":"MNT-003","sector_index":0,"azimuth":0,"band":"n78","power_dbm":40,"range_m":600.0,"fill":"#00e676","fill-opacity":0.25,"stroke":"#00e676","stroke-width":1,"stroke-opacity":0.7}},{"type":"Feature","geometry":{"type":"Polygon","coordinates":[[[139.7495,35.667],[139.7560662058599,35.6672351026987],[139.75607189830808,35.666929448820134],[139.7560564512012,35.66662402188065],[139.7560199142273,35.66631980433452],[139.75596240491333,35.666017774745825],[139.75588410824722,35.66571890464071],[139.75578527608258,35.66542415538238],[139.75566622632877,35.66513447507864],[139.75552734192829,35.6648507955322],[139.7553690696248,35.66457402924342],[139.75519191852635,35.66430506647503],[139.75499645846762,35.6640447723885],[139.75478331817692,35.66379398426113],[139.75455318325388,35.66355350879277],[139.754306793964,35.66332411951098],[139.7540449428576,35.66310655428283],[139.7537684722204,35.66290151294143],[139.7534782713641,35.66270965503485],[139.75317527376583,35.66253159770452],[139.7528604540656,35.66236791370014],[139.7525348249309,35.662219129537306],[139.7495,35.667]]]},"properties":{"tower_id":"MNT-003","sector_index":1,"azimuth":120,"band":"n78","power_dbm":40,"range_m":600.0,"fill":"#00e676","fill-opacity":0.25,"stroke":"#00e676","stroke-width":1,"stroke-opacity":0.7}},{"type":"Feature","geometry":{"type":"Polygon","coordinates":[[[139.7495,35.667],[139.74646517506912,35.662219129537306],[139.74613954593443,35.66236791370014],[139.7458247262342,35.66253159770452],[139.74552172863594,35.66270965503485],[139.74523152777962,35.66290151294143],[139.74495505714242,35.66310655428283],[139.74469320603603,35.66332411951098],[139.74444681674615,35.66355350879277],[139.7442166818231,35.66379398426113],[139.7440035415324,35.6640447723885],[139.74380808147367,35.66430506647503],[139.74363093037522,35.66457402924342],[139.74347265807174,35.6648507955322],[139.74333377367125,35.66513447507864],[139.74321472391745,35.66542415538238],[139.7431158917528,35.66571890464071],[139.7430375950867,35.666017774745825],[139.74298008577273,35.66631980433452],[139.74294354879882,35.66662402188065],[139.74292810169194,35.666929448820134],[139.74293379414013,35.6672351026987],[139.7495,35.667]]]},"properties":{"tower_id":"MNT-003","sector_index":2,"azimuth":240,"band":"n78","power_dbm":40,"range_m":600.0,"fill":"#00e676","fill-opacity":0.25,"stroke":"#00e676","stroke-width":1,"stroke-opacity":0.7}},{"type":"Feature","geometry":{"type":"Polygon","coordinates":[[[139.737,35.6594],[139.73746232582667,35.66111018434592],[139.73757981035956,35.661085939373955],[139.73769542984027,35.66105627131011],[139.7378088123604,35.66102127558645],[139.73791959320712,35.66098106477226],[139.73802741603615,35.66093576821203],[139.73813193401824,35.660885531609324],[139.7382328109547,35.66083051655818],[139.7383297223589,35.66077090002323],[139.73842235649983,35.66070687377054],[139.7385104154051,35.66063864375073],[139.7385936158192,35.660566429436486],[139.73867169011487,35.66049046311664],[139.73874438715364,35.660410989148914],[139.738811473094,35.66032826317396],[139.7388727321433,35.660242551293024],[139.73892796725215,35.660154129211975],[139.73897700074798,35.6600632813545],[139.73901967490679,35.65997029994717],[139.73905585246038,35.65987548407944],[139.73908541703787,35.65977913874163],[139.737,35.6594]]]},"properties":{"tower_id":"MNT-004","sector_index":0,"azimuth":45,"band":"n257","power_dbm":33,"range_m":195.0,"fill":"#e040fb","fill-opacity":0.25,"stroke":"#e040fb","stroke-width":1,"stroke-opacity":0.7}},{"type":"Feature","geometry":{"type":"Polygon","coordinates":[[[139.737,35.6594],[139.73908541703787,35.65902086125837],[139.73905585246038,35.65892451592055],[139.73901967490679,35.65882970005283],[139.73897700074798,35.65873671864549],[139.73892796725215,35.65864587078802],[139.7388727321433,35.65855744870697],[139.738811473094,35.65847173682604],[139.73874438715364,35.65838901085108],[139.73867169011487,35.65830953688336],[139.7385936158192,35.65823357056351],[139.7385104154051,35.658161356249266],[139.73842235649983,35.65809312622945],[139.7383297223589,35.658029099976766],[139.7382328109547,35.65796948344182],[139.73813193401824,35.65791446839067],[139.73802741603615,35.65786423178797],[139.73791959320712,35.65781893522774],[139.7378088123604,35.65777872441355],[139.73769542984027,35.65774372868989],[139.73757981035956,35.65771406062604],[139.73746232582667,35.657689815654074],[139.737,35.6594]]]},"properties":{"tower_id":"MNT-004","sector_index":1,"azimuth":135,"band":"n257","power_dbm":33,"range_m":195.0,"fill":"#e040fb","fill-opacity":0.25,"stroke":"#e040fb","stroke-width":1,"stroke-opacity":0.7}},{"type":"Feature","geometry":{"type":"Polygon","coordinates":[[[139.737,35.6594],[139.73653767417332,35.657689815654074],[139.73642018964043,35.65771406062604],[139.73630457015972,35.65774372868989],[139.73619118763958,35.65777872441355],[139.73608040679287,35.65781893522774],[139.73597258396384,35.65786423178797],[139.73586806598175,35.65791446839067],[139.73576718904528,35.65796948344182],[139.73567027764108,35.658029099976766],[139.73557764350016,35.65809312622945],[139.7354895845949,35.658161356249266],[139.73540638418078,35.65823357056351],[139.73532830988512,35.65830953688336],[139.73525561284634,35.65838901085108],[139.735188526906,35.65847173682604],[139.73512726785668,35.65855744870697],[139.73507203274784,35.65864587078802],[139.735022999252,35.65873671864549],[139.7349803250932,35.65882970005283],[139.7349441475396,35.65892451592055],[139.73491458296212,35.65902086125837],[139.737,35.6594]]]},"properties":{"tower_id":"MNT-004","sector_index":2,"azimuth":225,"band":"n257","power_dbm":33,"range_m":195.0,"fill":"#e040fb","fill-opacity":0.25,"stroke":"#e040fb","stroke-width":1,"stroke-opacity":0.7}},{"type":"Feature","geometry":{"type":"Polygon","coordinates":[[[139.737,35.6594],[139.73491458296212,35.65977913874163],[139.7349441475396,35.65987548407944],[139.7349803250932,35.65997029994717],[139.735022999252,35.6600632813545],[139.73507203274784,35.660154129211975],[139.73512726785668,35.660242551293024],[139.735188526906,35.66032826317396],[139.73525561284634,35.660410989148914],[139.73532830988512,35.66049046311664],[139.73540638418078,35.660566429436486],[139.7354895845949,35.66063864375073],[139.73557764350016,35.66070687377054],[139.73567027764108,35.66077090002323],[139.73576718904528,35.66083051655818],[139.73586806598175,35.660885531609324],[139.73597258396384,35.66093576821203],[139.73608040679287,35.66098106477226],[139.73619118763958,35.66102127558645],[139.73630457015972,35.66105627131011],[139.73642018964043,35.661085939373955],[139.73653767417332,35.66111018434592],[139.737,35.6594]]]},"properties":{"tower_id":"MNT-004","sector_index":3,"azimuth":315,"band":"n257","power_dbm":33,"range_m":195.0,"fill":"#e040fb","fill-opacity":0.25,"stroke":"#e040fb","stroke-width":1,"stroke-opacity":0.7}},{"type":"Feature","geometry":{"type":"Polygon","coordinates":[[[139.7671,35.6812],[139.76303891193166,35.68642763292859],[139.76340683912113,35.686608033101685],[139.76378664594935,35.68677103747706],[139.76417711070732,35.686916121725226],[139.7645769774031,35.68704281915966],[139.76498495980192,35.687150722237924],[139.76539974556363,35.68723948387263],[139.76582000046383,35.687308818547876],[139.76624437268595,35.68735850323766],[139.76667149716926,35.68738837812329],[139.7671,35.68739834710743],[139.76752850283074,35.68738837812329],[139.76795562731405,35.68735850323766],[139.76837999953617,35.687308818547876],[139.76880025443637,35.68723948387263],[139.76921504019808,35.687150722237924],[139.7696230225969,35.68704281915966],[139.77002288929268,35.686916121725226],[139.77041335405065,35.68677103747706],[139.77079316087887,35.686608033101685],[139.77116108806834,35.68642763292859],[139.7671,35.6812]]]},"properties":{"tower_id":"CTR-001","sector_index":0,"azimuth":0,"band":"n77","power_dbm":43,"range_m":690.0,"fill":"#00b4d8","fill-opacity":0.25,"stroke":"#00b4d8","stroke-width":1,"stroke-opacity":0.7}},{"type":"Feature","geometry":{"type":"Polygon","coordinates":[[[139.7671,35.6812],[139.77465113673887,35.681470368103504],[139.7746576830543,35.68111886614315],[139.77463991888135,35.68076762516274],[139.77459790136137,35.68041777498469],[139.77453176565032,35.68007044095769],[139.7744417244843,35.67972674033682],[139.77432806749496,35.67938777868973],[139.7741911602781,35.679054646340425],[139.7740314432175,35.67872841486203],[139.7738494300685,35.67841013362993],[139.7736457063053,35.678100826446276],[139.77342092723777,35.67780148824677],[139.77317581590344,35.6775130819003],[139.77291116074193,35.67723653511169],[139.77262781305856,35.67697273743762],[139.77232668428624,35.67672253742525],[139.77200874305342,35.67648673988264],[139.77167501206867,35.67626610329007],[139.7713265648307,35.676061337360196],[139.7709645221754,35.675873100755155],[139.77059004867053,35.6757019989679],[139.7671,35.6812]]]},"properties":{"tower_id":"CTR-001","sector_index":1,"azimuth":120,"band":"n77","power_dbm":43,"range_m":690.0,"fill":"#00b4d8","fill-opacity":0.25,"stroke":"#00b4d8","stroke-width":1,"stroke-opacity":0.7}},{"type":"Feature","geometry":{"type":"Polygon","coordinates":[[[139.7671,35.6812],[139.76360995132947,35.6757019989679],[139.7632354778246,35.675873100755155],[139.7628734351693,35.676061337360196],[139.76252498793133,35.67626610329007],[139.76219125694658,35.67648673988264],[139.76187331571376,35.67672253742525],[139.76157218694144,35.67697273743762],[139.76128883925807,35.67723653511169],[139.76102418409656,35.6775130819003],[139.76077907276223,35.67780148824677],[139.7605542936947,35.678100826446276],[139.7603505699315,35.67841013362993],[139.7601685567825,35.67872841486203],[139.7600088397219,35.679054646340425],[139.75987193250504,35.67938777868973],[139.7597582755157,35.67972674033682],[139.75966823434968,35.68007044095769],[139.75960209863862,35.68041777498469],[139.75956008111865,35.68076762516274],[139.7595423169457,35.68111886614315],[139.75954886326113,35.681470368103504],[139.7671,35.6812]]]},"properties":{"tower_id":"CTR-001","sector_index":2,"azimuth":240,"band":"n77","power_dbm":43,"range_m":690.0,"fill":"#00b4d8","fill-opacity":0.25,"stroke":"#00b4d8","stroke-width":1,"stroke-opacity":0.7}},{"type":"Feature","geometry":{"type":"Polygon","coordinates":[[[139.7649,35.6717],[139.76465631627173,35.67627702652719],[139.76497312623226,35.676280994493915],[139.76528970097064,35.676270226964],[139.76560502217396,35.67624475857291],[139.76591807556142,35.67620467124378],[139.76622785414708,35.676150093923866],[139.7665333614789,35.67608120216979],[139.76683361484402,35.67599821758283],[139.76712764842975,35.67590140709609],[139.7674145164304,35.67579108211588],[139.7676932960894,35.67566759752003],[139.76796309066773,35.67553135051637],[139.76822303232822,35.67538277936503],[139.76847228492727,35.675222361968714],[139.76871004670429,35.67505061433548],[139.76893555286068,35.67486808891888],[139.76914807802012,35.674675372840895],[139.76934693856165,35.67447308600343],[139.76953149481875,35.67426187909423],[139.76970115313688,35.67404243149389],[139.76985536778312,35.67381544909046],[139.7649,35.6717]]]},"properties":{"tower_id":"CTR-002","sector_index":0,"azimuth":30,"band":"n78","power_dbm":37,"range_m":510.0,"fill":"#00e676","fill-opacity":0.25,"stroke":"#00e676","stroke-width":1,"stroke-opacity":0.7}},{"type":"Feature","geometry":{"type":"Polygon","coordinates":[[[139.7649,35.6717],[139.76985536778312,35.66958455090954],[139.76970115313688,35.669357568506115],[139.76953149481875,35.66913812090577],[139.76934693856165,35.66892691399657],[139.76914807802012,35.66872462715911],[139.76893555286068,35.668531911081125],[139.76871004670429,35.66834938566452],[139.76847228492727,35.66817763803129],[139.76822303232822,35.66801722063497],[139.76796309066773,35.66786864948363],[139.7676932960894,35.66773240247997],[139.7674145164304,35.667608917884124],[139.76712764842975,35.66749859290391],[139.76683361484402,35.66740178241717],[139.7665333614789,35.66731879783021],[139.76622785414708,35.66724990607614],[139.76591807556142,35.66719532875622],[139.76560502217396,35.66715524142709],[139.76528970097064,35.667129773036],[139.76497312623226,35.66711900550609],[139.76465631627173,35.667122973472814],[139.7649,35.6717]]]},"properties":{"tower_id":"CTR-002","sector_index":1,"azimuth":150,"band":"n78","power_dbm":37,"range_m":510.0,"fill":"#00e676","fill-opacity":0.25,"stroke":"#00e676","stroke-width":1,"stroke-opacity":0.7}},{"type":"Feature","geometry":{"type":"Polygon","coordinates":[[[139.7649,35.6717],[139.7601883159452,35.66923842256327],[139.7600257206309,35.66946143699997],[139.75987880421064,35.66969165213023],[139.75974803926442,35.66992832743052],[139.7596338464185,35.670170701597115],[139.75953659299228,35.670417994995006],[139.75945659181684,35.670669412165694],[139.75939410022875,35.670924144385886],[139.75934931924203,35.67118137226894],[139.75932239290194,35.671440268400495],[139.75931340782125,35.6717],[139.75932239290194,35.67195973159951],[139.75934931924203,35.67221862773106],[139.75939410022875,35.67247585561412],[139.75945659181684,35.67273058783431],[139.75953659299228,35.672982005005],[139.7596338464185,35.67322929840289],[139.75974803926442,35.673471672569484],[139.75987880421064,35.67370834786977],[139.7600257206309,35.673938563000036],[139.7601883159452,35.674161577436735],[139.7649,35.6717]]]},"properties":{"tower_id":"CTR-002","sector_index":2,"azimuth":270,"band":"n78","power_dbm":37,"range_m":510.0,"fill":"#00e676","fill-opacity":0.25,"stroke":"#00e676","stroke-width":1,"stroke-opacity":0.7}},{"type":"Feature","geometry":{"type":"Polygon","coordinates":[[[139.7731,35.6984],[139.769568619071,35.70294576776399],[139.7698885557575,35.70310263747973],[139.77021882256466,35.70324438041484],[139.7705583571368,35.70337054063064],[139.77090606730704,35.70348071231275],[139.7712608346104,35.703574541076456],[139.7716215178814,35.70365172510664],[139.77198695692508,35.70371201612859],[139.77235597624866,35.703755220206666],[139.77272738884284,35.70378119836808],[139.7731,35.70378986704995],[139.77347261115716,35.70378119836808],[139.77384402375134,35.703755220206666],[139.77421304307492,35.70371201612859],[139.77457848211859,35.70365172510664],[139.7749391653896,35.703574541076456],[139.77529393269296,35.70348071231275],[139.7756416428632,35.70337054063064],[139.77598117743534,35.70324438041484],[139.7763114442425,35.70310263747973],[139.776631380929,35.70294576776399],[139.7731,35.6984]]]},"properties":{"tower_id":"CTR-003","sector_index":0,"azimuth":0,"band":"n77","power_dbm":40,"range_m":600.0,"fill":"#00b4d8","fill-opacity":0.25,"stroke":"#00b4d8","stroke-width":1,"stroke-opacity":0.7}},{"type":"Feature","geometry":{"type":"Polygon","coordinates":[[[139.7731,35.6984],[139.77966620585988,35.698635102698695],[139.77967189830807,35.69832944882013],[139.7796564512012,35.69802402188065],[139.77961991422728,35.69771980433452],[139.77956240491332,35.69741777474582],[139.7794841082472,35.69711890464071],[139.77938527608256,35.69682415538238],[139.77926622632876,35.696534475078636],[139.77912734192827,35.6962507955322],[139.7789690696248,35.695974029243416],[139.77879191852634,35.69570506647503],[139.7785964584676,35.6954447723885],[139.7783833181769,35.69519398426113],[139.77815318325386,35.69495350879277],[139.77790679396398,35.69472411951098],[139.7776449428576,35.694506554282825],[139.7773684722204,35.69430151294143],[139.77707827136408,35.69410965503485],[139.77677527376582,35.69393159770452],[139.77646045406559,35.693767913700135],[139.7761348249309,35.6936191295373],[139.7731,35.6984]]]},"properties":{"tower_id":"CTR-003","sector_index":1,"azimuth":120,"band":"n77","power_dbm":40,"range_m":600.0,"fill":"#00b4d8","fill-opacity":0.25,"stroke":"#00b4d8","stroke-width":1,"stroke-opacity":0.7}},{"type":"Feature","geometry":{"type":"Polygon","coordinates":[[[139.7731,35.6984],[139.7700651750691,35.6936191295373],[139.7697395459344,35.693767913700135],[139.76942472623418,35.69393159770452],[139.76912172863592,35.69410965503485],[139.7688315277796,35.69430151294143],[139.7685550571424,35.694506554282825],[139.76829320603602,35.69472411951098],[139.76804681674614,35.69495350879277],[139.7678166818231,35.69519398426113],[139.7676035415324,35.6954447723885],[139.76740808147366,35.69570506647503],[139.7672309303752,35.695974029243416],[139.76707265807173,35.6962507955322],[139.76693377367124,35.696534475078636],[139.76681472391743,35.69682415538238],[139.7667158917528,35.69711890464071],[139.76663759508668,35.69741777474582],[139.76658008577272,35.69771980433452],[139.7665435487988,35.69802402188065],[139.76652810169193,35.69832944882013],[139.76653379414012,35.698635102698695],[139.7731,35.6984]]]},"properties":{"tower_id":"CTR-003","sector_index":2,"azimuth":240,"band":"n77","power_dbm":40,"range_m":600.0,"fill":"#00b4d8","fill-opacity":0.25,"stroke":"#00b4d8","stroke-width":1,"stroke-opacity":0.7}},{"type":"Feature","geometry":{"type":"Polygon","coordinates":[[[139.7185,35.7295],[139.71560755210504,35.735226526027965],[139.7160080891091,35.735351791448714],[139.71641664174047,35.73545823365251],[139.7168318958247,35.735545510251086],[139.71725251563103,35.735613340505395],[139.71767714816906,35.73566150622865],[139.71810442754074,35.73568985248815],[139.71853297933407,35.73569828810364],[139.71896142504414,35.735686785940636],[139.71938838650723,35.735655382997656],[139.719812490334,35.73560418028727],[139.72023237232705,35.73553334251112],[139.72064668186928,35.73544309753018],[139.7210540862682,35.735333735631755],[139.72145327504282,35.735205608595784],[139.72184296413903,35.73505912856322],[139.72222190005994,35.734894766710376],[139.72258886389795,35.73471305173325],[139.72294267525558,35.734514568146956],[139.7232821960424,35.73429995440547],[139.72360633413578,35.734069900848],[139.7185,35.7295]]]},"properties":{"tower_id":"IKB-001","sector_index":0,"azimuth":10,"band":"n77","power_dbm":43,"range_m":690.0,"fill":"#00b4d8","fill-opacity":0.25,"stroke":"#00b4d8","stroke-width":1,"stroke-opacity":0.7}},{"type":"Feature","geometry":{"type":"Polygon","coordinates":[[[139.7185,35.7295],[139.7259936680288,35.72869095335401],[139.725925684899,35.72834385928094],[139.72583381587393,35.72800048411818],[139.72571835646485,35.72766193238652],[139.72557967806532,35.727329293091366],[139.7254182267564,35.727003636219884],[139.72523452187195,35.72668600929914],[139.72502915432787,35.72637743402658],[139.7248027847215,35.7260789029836],[139.72455614120668,35.72579137644274],[139.72429001715142,35.7255157792788],[139.72400526858604,35.72525299799385],[139.72370281144956,35.725003877865625],[139.72338361864337,35.72476922022862],[139.7230487169019,35.7245497798964],[139.7226991834898,35.72434626273366],[139.72233614273682,35.72415932338569],[139.7219607624212,35.72398956317261],[139.7215742500134,35.72383752815511],[139.72117784879197,35.72370370737798],[139.72077283384442,35.72358853129702],[139.7185,35.7295]]]},"properties":{"tower_id":"IKB-001","sector_index":1,"azimuth":130,"band":"n77","power_dbm":43,"range_m":690.0,"fill":"#00b4d8","fill-opacity":0.25,"stroke":"#00b4d8","stroke-width":1,"stroke-opacity":0.7}},{"type":"Feature","geometry":{"type":"Polygon","coordinates":[[[139.7185,35.7295],[139.71389877986618,35.72458252061803],[139.7135662259919,35.72480434927035],[139.71324954238563,35.725041282229306],[139.7129497477105,35.7252925573624],[139.71266780630367,35.72555736640324],[139.71240462507456,35.72583485755147],[139.71216105058733,35.72612413821272],[139.71193786633808,35.72642427786978],[139.71173579023437,35.72673431107577],[139.7115554722861,35.727053240559606],[139.7113974925146,35.727380040433935],[139.71126235908693,35.72771365949504],[139.7111505066812,35.7280530246042],[139.71106229508845,35.728397044139626],[139.7109980080553,35.72874461150782],[139.7109578523712,35.72909460870312],[139.71094195720326,35.72944590990394],[139.71095037368087,35.729797385094145],[139.71098307473105,35.73014790369794],[139.71103995516566,35.730496338216554],[139.71112083201982,35.73084156785499],[139.7185,35.7295]]]},"properties":{"tower_id":"IKB-001","sector_index":2,"azimuth":250,"band":"n77","power_dbm":43,"range_m":690.0,"fill":"#00b4d8","fill-opacity":0.25,"stroke":"#00b4d8","stroke-width":1,"stroke-opacity":0.7}},{"type":"Feature","geometry":{"type":"Polygon","coordinates":[[[139.7109,35.731],[139.70789832621037,35.73486390259939],[139.7081702723939,35.734997241857776],[139.70845099917995,35.73511772335261],[139.70873960356627,35.73522495953604],[139.709035157211,35.73531860546584],[139.70933670941884,35.735398359914996],[139.7096432901992,35.735463966340646],[139.70995391338633,35.735515213709306],[139.71026757981136,35.735551937175664],[139.7105832805164,35.735574018612866],[139.7109,35.73558138699246],[139.71121671948362,35.735574018612866],[139.71153242018866,35.735551937175664],[139.7118460866137,35.735515213709306],[139.7121567098008,35.735463966340646],[139.71246329058118,35.735398359914996],[139.71276484278903,35.73531860546584],[139.71306039643375,35.73522495953604],[139.71334900082007,35.73511772335261],[139.71362972760613,35.734997241857776],[139.71390167378965,35.73486390259939],[139.7109,35.731]]]},"properties":{"tower_id":"IKB-002","sector_index":0,"azimuth":0,"band":"n78","power_dbm":37,"range_m":510.0,"fill":"#00e676","fill-opacity":0.25,"stroke":"#00e676","stroke-width":1,"stroke-opacity":0.7}},{"type":"Feature","geometry":{"type":"Polygon","coordinates":[[[139.7109,35.731],[139.7164812749809,35.73119983729389],[139.71648611356187,35.73094003149711],[139.71647298352102,35.73068041859855],[139.7164419270932,35.73042183368434],[139.71639304417636,35.730165108533946],[139.71632649201013,35.72991106894461],[139.7162424846702,35.72966053207502],[139.71614129237946,35.72941430381684],[139.71602324063903,35.72917317620237],[139.7158887091811,35.72893792485691],[139.7157381307474,35.728709306503774],[139.71557198969748,35.72848805653023],[139.71539082045038,35.72827488662196],[139.71519520576578,35.72807048247386],[139.71498577486938,35.727875501584336],[139.71476320142895,35.72769057114041],[139.71452820138734,35.72751628600022],[139.71428153065946,35.727353206779625],[139.71402398270095,35.72720185804884],[139.71375638595575,35.727062726645116],[139.71347960119127,35.72693626010671],[139.7109,35.731]]]},"properties":{"tower_id":"IKB-002","sector_index":1,"azimuth":120,"band":"n78","power_dbm":37,"range_m":510.0,"fill":"#00e676","fill-opacity":0.25,"stroke":"#00e676","stroke-width":1,"stroke-opacity":0.7}},{"type":"Feature","geometry":{"type":"Polygon","coordinates":[[[139.7109,35.731],[139.70832039880875,35.72693626010671],[139.70804361404427,35.727062726645116],[139.70777601729907,35.72720185804884],[139.70751846934056,35.727353206779625],[139.70727179861268,35.72751628600022],[139.70703679857107,35.72769057114041],[139.70681422513064,35.727875501584336],[139.70660479423424,35.72807048247386],[139.70640917954964,35.72827488662196],[139.70622801030254,35.72848805653023],[139.7060618692526,35.728709306503774],[139.70591129081893,35.72893792485691],[139.705776759361,35.72917317620237],[139.70565870762056,35.72941430381684],[139.70555751532982,35.72966053207502],[139.7054735079899,35.72991106894461],[139.70540695582366,35.730165108533946],[139.70535807290682,35.73042183368434],[139.705327016479,35.73068041859855],[139.70531388643815,35.73094003149711],[139.7053187250191,35.73119983729389],[139.7109,35.731]]]},"properties":{"tower_id":"IKB-002","sector_index":2,"azimuth":240,"band":"n78","power_dbm":37,"range_m":510.0,"fill":"#00e676","fill-opacity":0.25,"stroke":"#00e676","stroke-width":1,"stroke-opacity":0.7}},{"type":"Feature","geometry":{"type":"Polygon","coordinates":[[[139.7387,35.6284],[139.73463891193165,35.633627632928594],[139.73500683912113,35.63380803310169],[139.73538664594935,35.63397103747706],[139.73577711070732,35.63411612172523],[139.7361769774031,35.63424281915966],[139.73658495980192,35.634350722237926],[139.73699974556362,35.63443948387263],[139.73742000046383,35.63450881854788],[139.73784437268594,35.63455850323766],[139.73827149716925,35.63458837812329],[139.7387,35.634598347107435],[139.73912850283074,35.63458837812329],[139.73955562731405,35.63455850323766],[139.73997999953616,35.63450881854788],[139.74040025443637,35.63443948387263],[139.74081504019807,35.634350722237926],[139.7412230225969,35.63424281915966],[139.74162288929267,35.63411612172523],[139.74201335405064,35.63397103747706],[139.74239316087886,35.63380803310169],[139.74276108806833,35.633627632928594],[139.7387,35.6284]]]},"properties":{"tower_id":"SGW-001","sector_index":0,"azimuth":0,"band":"n77","power_dbm":43,"range_m":690.0,"fill":"#00b4d8","fill-opacity":0.25,"stroke":"#00b4d8","stroke-width":1,"stroke-opacity":0.7}},{"type":"Feature","geometry":{"type":"Polygon","coordinates":[[[139.7387,35.6284],[139.74625113673886,35.628670368103506],[139.7462576830543,35.628318866143154],[139.74623991888134,35.62796762516274],[139.74619790136137,35.62761777498469],[139.74613176565032,35.627270440957695],[139.7460417244843,35.62692674033682],[139.74592806749496,35.62658777868973],[139.7457911602781,35.62625464634043],[139.7456314432175,35.62592841486203],[139.7454494300685,35.625610133629934],[139.7452457063053,35.62530082644628],[139.74502092723776,35.625001488246774],[139.74477581590344,35.6247130819003],[139.74451116074192,35.62443653511169],[139.74422781305856,35.624172737437625],[139.74392668428624,35.62392253742525],[139.74360874305341,35.62368673988264],[139.74327501206866,35.62346610329007],[139.7429265648307,35.6232613373602],[139.7425645221754,35.62307310075516],[139.74219004867052,35.622901998967905],[139.7387,35.6284]]]},"properties":{"tower_id":"SGW-001","sector_index":1,"azimuth":120,"band":"n77","power_dbm":43,"range_m":690.0,"fill":"#00b4d8","fill-opacity":0.25,"stroke":"#00b4d8","stroke-width":1,"stroke-opacity":0.7}},{"type":"Feature","geometry":{"type":"Polygon","coordinates":[[[139.7387,35.6284],[139.73520995132947,35.622901998967905],[139.7348354778246,35.62307310075516],[139.7344734351693,35.6232613373602],[139.73412498793132,35.62346610329007],[139.73379125694657,35.62368673988264],[139.73347331571375,35.62392253742525],[139.73317218694143,35.624172737437625],[139.73288883925807,35.62443653511169],[139.73262418409655,35.6247130819003],[139.73237907276223,35.625001488246774],[139.7321542936947,35.62530082644628],[139.73195056993148,35.625610133629934],[139.7317685567825,35.62592841486203],[139.7316088397219,35.62625464634043],[139.73147193250503,35.62658777868973],[139.7313582755157,35.62692674033682],[139.73126823434967,35.627270440957695],[139.73120209863862,35.62761777498469],[139.73116008111865,35.62796762516274],[139.7311423169457,35.628318866143154],[139.73114886326113,35.628670368103506],[139.7387,35.6284]]]},"properties":{"tower_id":"SGW-001","sector_index":2,"azimuth":240,"band":"n77","power_dbm":43,"range_m":690.0,"fill":"#00b4d8","fill-opacity":0.25,"stroke":"#00b4d8","stroke-width":1,"stroke-opacity":0.7}},{"type":"Feature","geometry":{"type":"Polygon","coordinates":[[[139.776,35.619],[139.77140920479232,35.62490949809319],[139.77182512248476,35.62511342872365],[139.77225446933406,35.625297694539285],[139.77269586427784,35.62546170281983],[139.77314788749916,35.625604926006574],[139.7736090849935,35.625726903399396],[139.77407797324585,35.62582724263863],[139.7745530440026,35.62590562096717],[139.77503276912324,35.62596178626866],[139.77551560549568,35.625995557878504],[139.776,35.62600682716493],[139.77648439450434,35.625995557878504],[139.77696723087678,35.62596178626866],[139.77744695599742,35.62590562096717],[139.77792202675417,35.62582724263863],[139.77839091500653,35.625726903399396],[139.77885211250086,35.625604926006574],[139.77930413572219,35.62546170281983],[139.77974553066596,35.625297694539285],[139.78017487751526,35.62511342872365],[139.7805907952077,35.62490949809319],[139.776,35.619]]]},"properties":{"tower_id":"ODB-001","sector_index":0,"azimuth":0,"band":"n77","power_dbm":46,"range_m":780.0,"fill":"#00b4d8","fill-opacity":0.25,"stroke":"#00b4d8","stroke-width":1,"stroke-opacity":0.7}},{"type":"Feature","geometry":{"type":"Polygon","coordinates":[[[139.776,35.619],[139.77994527241017,35.6252151316015],[139.78036859028526,35.62502171218982],[139.7807778558956,35.62480892298412],[139.7811717527733,35.6245774484547],[139.7815490138865,35.62432803317614],[139.78190842571487,35.62406147943233],[139.7822488321532,35.62377864463572],[139.78256913823003,35.623480438569395],[139.78286831363,35.62316782046053],[139.7831453960079,35.62284179589495],[139.78339949408428,35.622503413582464],[139.78362979051224,35.622153761983554],[139.78383554450676,35.62179396580814],[139.7840160942274,35.62142518239778],[139.78417085890734,35.62104859800291],[139.7842993407214,35.62066542396707],[139.78440112638734,35.62027689283043],[139.78447588849548,35.619884254365125],[139.78452338656155,35.61948877155516],[139.78454346780052,35.61909171653383],[139.78453606761786,35.61869436649169],[139.776,35.619]]]},"properties":{"tower_id":"ODB-001","sector_index":1,"azimuth":60,"band":"n77","power_dbm":46,"range_m":780.0,"fill":"#00b4d8","fill-opacity":0.25,"stroke":"#00b4d8","stroke-width":1,"stroke-opacity":0.7}},{"type":"Feature","geometry":{"type":"Polygon","coordinates":[[[139.776,35.619],[139.78453606761786,35.61930563350831],[139.78454346780052,35.61890828346617],[139.78452338656155,35.61851122844484],[139.78447588849548,35.618115745634874],[139.78440112638734,35.61772310716957],[139.7842993407214,35.61733457603293],[139.78417085890734,35.61695140199709],[139.7840160942274,35.61657481760222],[139.78383554450676,35.61620603419186],[139.78362979051224,35.615846238016445],[139.78339949408428,35.615496586417535],[139.7831453960079,35.61515820410505],[139.78286831363,35.61483217953947],[139.78256913823003,35.614519561430605],[139.7822488321532,35.61422135536428],[139.78190842571487,35.61393852056767],[139.7815490138865,35.61367196682386],[139.7811717527733,35.6134225515453],[139.7807778558956,35.61319107701588],[139.78036859028526,35.61297828781018],[139.77994527241017,35.6127848683985],[139.776,35.619]]]},"properties":{"tower_id":"ODB-001","sector_index":2,"azimuth":120,"band":"n77","power_dbm":46,"range_m":780.0,"fill":"#00b4d8","fill-opacity":0.25,"stroke":"#00b4d8","stroke-width":1,"stroke-opacity":0.7}},{"type":"Feature","geometry":{"type":"Polygon","coordinates":[[[139.776,35.619],[139.7805907952077,35.61309050190681],[139.78017487751526,35.61288657127635],[139.77974553066596,35.612702305460715],[139.77930413572219,35.61253829718017],[139.77885211250086,35.612395073993426],[139.77839091500653,35.6122730966006],[139.77792202675417,35.61217275736137],[139.77744695599742,35.61209437903283],[139.77696723087678,35.61203821373134],[139.77648439450434,35.612004442121496],[139.776,35.61199317283507],[139.77551560549568,35.612004442121496],[139.77503276912324,35.61203821373134],[139.7745530440026,35.61209437903283],[139.77407797324585,35.61217275736137],[139.7736090849935,35.6122730966006],[139.77314788749916,35.612395073993426],[139.77269586427784,35.61253829718017],[139.77225446933406,35.612702305460715],[139.77182512248476,35.61288657127635],[139.77140920479232,35.61309050190681],[139.776,35.619]]]},"properties":{"tower_id":"ODB-001","sector_index":3,"azimuth":180,"band":"n77","power_dbm":46,"range_m":780.0,"fill":"#00b4d8","fill-opacity":0.25,"stroke":"#00b4d8","stroke-width":1,"stroke-opacity":0.7}},{"type":"Feature","geometry":{"type":"Polygon","coordinates":[[[139.776,35.619],[139.77205472758985,35.6127848683985],[139.77163140971476,35.61297828781018],[139.77122214410443,35.61319107701588],[139.77082824722672,35.6134225515453],[139.77045098611353,35.61367196682386],[139.77009157428515,35.61393852056767],[139.76975116784683,35.61422135536428],[139.76943086177,35.614519561430605],[139.76913168637003,35.61483217953947],[139.7688546039921,35.61515820410505],[139.76860050591574,35.615496586417535],[139.76837020948778,35.615846238016445],[139.76816445549326,35.61620603419186],[139.7679839057726,35.61657481760222],[139.76782914109268,35.61695140199709],[139.76770065927863,35.61733457603293],[139.76759887361268,35.61772310716957],[139.76752411150454,35.618115745634874],[139.76747661343848,35.61851122844484],[139.7674565321995,35.61890828346617],[139.76746393238216,35.61930563350831],[139.776,35.619]]]},"properties":{"tower_id":"ODB-001","sector_index":4,"azimuth":240,"band":"n77","power_dbm":46,"range_m":780.0,"fill":"#00b4d8","fill-opacity":0.25,"stroke":"#00b4d8","stroke-width":1,"stroke-opacity":0.7}},{"type":"Feature","geometry":{"type":"Polygon","coordinates":[[[139.776,35.619],[139.76746393238216,35.61869436649169],[139.7674565321995,35.61909171653383],[139.76747661343848,35.61948877155516],[139.76752411150454,35.619884254365125],[139.76759887361268,35.62027689283043],[139.76770065927863,35.62066542396707],[139.76782914109268,35.62104859800291],[139.7679839057726,35.62142518239778],[139.76816445549326,35.62179396580814],[139.76837020948778,35.622153761983554],[139.76860050591574,35.622503413582464],[139.7688546039921,35.62284179589495],[139.76913168637003,35.62316782046053],[139.76943086177,35.623480438569395],[139.76975116784683,35.62377864463572],[139.77009157428515,35.62406147943233],[139.77045098611353,35.62432803317614],[139.77082824722672,35.6245774484547],[139.77122214410443,35.62480892298412],[139.77163140971476,35.62502171218982],[139.77205472758985,35.6252151316015],[139.776,35.619]]]},"properties":{"tower_id":"ODB-001","sector_index":5,"azimuth":300,"band":"n77","power_dbm":46,"range_m":780.0,"fill":"#00b4d8","fill-opacity":0.25,"stroke":"#00b4d8","stroke-width":1,"stroke-opacity":0.7}},{"type":"Feature","geometry":{"type":"Polygon","coordinates":[[[139.8107,35.7101],[139.807168619071,35.71464576776399],[139.8074885557575,35.71480263747973],[139.80781882256466,35.714944380414835],[139.8081583571368,35.715070540630634],[139.80850606730704,35.715180712312744],[139.80886083461039,35.715274541076454],[139.8092215178814,35.715351725106636],[139.80958695692507,35.71541201612859],[139.80995597624866,35.715455220206664],[139.81032738884284,35.715481198368074],[139.8107,35.715489867049946],[139.81107261115716,35.715481198368074],[139.81144402375133,35.715455220206664],[139.81181304307492,35.71541201612859],[139.81217848211858,35.715351725106636],[139.8125391653896,35.715274541076454],[139.81289393269296,35.715180712312744],[139.8132416428632,35.715070540630634],[139.81358117743534,35.714944380414835],[139.8139114442425,35.71480263747973],[139.814231380929,35.71464576776399],[139.8107,35.7101]]]},"properties":{"tower_id":"SMD-001","sector_index":0,"azimuth":0,"band":"n78","power_dbm":40,"range_m":600.0,"fill":"#00e676","fill-opacity":0.25,"stroke":"#00e676","stroke-width":1,"stroke-opacity":0.7}},{"type":"Feature","geometry":{"type":"Polygon","coordinates":[[[139.8107,35.7101],[139.81726620585988,35.71033510269869],[139.81727189830806,35.71002944882013],[139.8172564512012,35.709724021880646],[139.81721991422728,35.709419804334516],[139.81716240491332,35.70911777474582],[139.8170841082472,35.70881890464071],[139.81698527608256,35.70852415538238],[139.81686622632876,35.70823447507863],[139.81672734192827,35.7079507955322],[139.8165690696248,35.707674029243414],[139.81639191852634,35.707405066475026],[139.8161964584676,35.707144772388496],[139.8159833181769,35.70689398426113],[139.81575318325386,35.70665350879277],[139.81550679396398,35.70642411951098],[139.8152449428576,35.70620655428282],[139.8149684722204,35.70600151294143],[139.81467827136407,35.70580965503485],[139.81437527376582,35.70563159770452],[139.81406045406558,35.70546791370013],[139.8137348249309,35.7053191295373],[139.8107,35.7101]]]},"properties":{"tower_id":"SMD-001","sector_index":1,"azimuth":120,"band":"n78","power_dbm":40,"range_m":600.0,"fill":"#00e676","fill-opacity":0.25,"stroke":"#00e676","stroke-width":1,"stroke-opacity":0.7}},{"type":"Feature","geometry":{"type":"Polygon","coordinates":[[[139.8107,35.7101],[139.8076651750691,35.7053191295373],[139.8073395459344,35.70546791370013],[139.80702472623418,35.70563159770452],[139.80672172863592,35.70580965503485],[139.8064315277796,35.70600151294143],[139.8061550571424,35.70620655428282],[139.80589320603602,35.70642411951098],[139.80564681674613,35.70665350879277],[139.8054166818231,35.70689398426113],[139.8052035415324,35.707144772388496],[139.80500808147366,35.707405066475026],[139.8048309303752,35.707674029243414],[139.80467265807172,35.7079507955322],[139.80453377367124,35.70823447507863],[139.80441472391743,35.70852415538238],[139.8043158917528,35.70881890464071],[139.80423759508668,35.70911777474582],[139.8041800857727,35.709419804334516],[139.8041435487988,35.709724021880646],[139.80412810169193,35.71002944882013],[139.8041337941401,35.71033510269869],[139.8107,35.7101]]]},"properties":{"tower_id":"SMD-001","sector_index":2,"azimuth":240,"band":"n78","power_dbm":40,"range_m":600.0,"fill":"#00e676","fill-opacity":0.25,"stroke":"#00e676","stroke-width":1,"stroke-opacity":0.7}},{"type":"Feature","geometry":{"type":"Polygon","coordinates":[[[139.777,35.7135],[139.78088021039807,35.71552718141849],[139.78101411242162,35.71534352247062],[139.78113510241477,35.71515393353981],[139.781242791194,35.71495902446899],[139.78133683236123,35.714759422214144],[139.78141692341813,35.714555768827644],[139.78148280673906,35.714348719392966],[139.78153427039987,35.71413893991751],[139.78157114885948,35.71392710519029],[139.78159332349253,35.71371389661137],[139.78160072297075,35.7135],[139.78159332349253,35.71328610338864],[139.78157114885948,35.71307289480972],[139.78153427039987,35.712861060082496],[139.78148280673906,35.71265128060704],[139.78141692341813,35.71244423117236],[139.78133683236123,35.71224057778586],[139.781242791194,35.71204097553102],[139.78113510241477,35.7118460664602],[139.78101411242162,35.71165647752939],[139.78088021039807,35.71147281858152],[139.777,35.7135]]]},"properties":{"tower_id":"HO-001","sector_index":0,"azimuth":90,"band":"n77","power_dbm":34,"range_m":420.0,"fill":"#00b4d8","fill-opacity":0.25,"stroke":"#00b4d8","stroke-width":1,"stroke-opacity":0.7}},{"type":"Feature","geometry":{"type":"Polygon","coordinates":[[[139.777,35.7135],[139.7731197896019,35.71147281858152],[139.77298588757836,35.71165647752939],[139.7728648975852,35.7118460664602],[139.77275720880598,35.71204097553102],[139.77266316763874,35.71224057778586],[139.77258307658184,35.71244423117236],[139.7725171932609,35.71265128060704],[139.7724657296001,35.712861060082496],[139.7724288511405,35.71307289480972],[139.77240667650744,35.71328610338864],[139.77239927702922,35.7135],[139.77240667650744,35.71371389661137],[139.7724288511405,35.71392710519029],[139.7724657296001,35.71413893991751],[139.7725171932609,35.714348719392966],[139.77258307658184,35.714555768827644],[139.77266316763874,35.714759422214144],[139.77275720880598,35.71495902446899],[139.7728648975852,35.71515393353981],[139.77298588757836,35.71534352247062],[139.7731197896019,35.71552718141849],[139.777,35.7135]]]},"properties":{"tower_id":"HO-001","sector_index":1,"azimuth":270,"band":"n77","power_dbm":34,"range_m":420.0,"fill":"#00b4d8","fill-opacity":0.25,"stroke":"#00b4d8","stroke-width":1,"stroke-opacity":0.7}},{"type":"Feature","geometry":{"type":"Polygon","coordinates":[[[139.715,35.642],[139.7132343095355,35.644272883882],[139.71339427787876,35.64435131873987],[139.71355941128232,35.64442219020742],[139.7137291785684,35.64448527031532],[139.71390303365354,35.64454035615638],[139.71408041730518,35.64458727053823],[139.7142607589407,35.644625862553326],[139.71444347846256,35.6446560080643],[139.71462798812433,35.64467761010334],[139.71481369442142,35.644690599184045],[139.715,35.644694933524974],[139.71518630557858,35.644690599184045],[139.71537201187567,35.64467761010334],[139.71555652153745,35.6446560080643],[139.7157392410593,35.644625862553326],[139.71591958269482,35.64458727053823],[139.71609696634647,35.64454035615638],[139.7162708214316,35.64448527031532],[139.7164405887177,35.64442219020742],[139.71660572212124,35.64435131873987],[139.7167656904645,35.644272883882],[139.715,35.642]]]},"properties":{"tower_id":"HO-002","sector_index":0,"azimuth":0,"band":"n78","power_dbm":30,"range_m":300.0,"fill":"#00e676","fill-opacity":0.25,"stroke":"#00e676","stroke-width":1,"stroke-opacity":0.7}},{"type":"Feature","geometry":{"type":"Polygon","coordinates":[[[139.715,35.642],[139.7167656904645,35.639727116118],[139.71660572212124,35.639648681260134],[139.7164405887177,35.639577809792584],[139.7162708214316,35.639514729684684],[139.71609696634647,35.63945964384363],[139.71591958269482,35.639412729461775],[139.7157392410593,35.63937413744668],[139.71555652153745,35.639343991935704],[139.71537201187567,35.63932238989667],[139.71518630557858,35.63930940081596],[139.715,35.63930506647503],[139.71481369442142,35.63930940081596],[139.71462798812433,35.63932238989667],[139.71444347846256,35.639343991935704],[139.7142607589407,35.63937413744668],[139.71408041730518,35.639412729461775],[139.71390303365354,35.63945964384363],[139.7137291785684,35.639514729684684],[139.71355941128232,35.639577809792584],[139.71339427787876,35.639648681260134],[139.7132343095355,35.639727116118],[139.715,35.642]]]},"properties":{"tower_id":"HO-002","sector_index":1,"azimuth":180,"band":"n78","power_dbm":30,"range_m":300.0,"fill":"#00e676","fill-opacity":0.25,"stroke":"#00e676","stroke-width":1,"stroke-opacity":0.7}},{"type":"Feature","geometry":{"type":"Polygon","coordinates":[[[139.755,35.675],[139.75592465165337,35.678420368691846],[139.7561596207191,35.6783718787479],[139.75639085968055,35.678312542620226],[139.75661762472086,35.67824255117289],[139.75683918641423,35.678162129544525],[139.75705483207227,35.678071536424056],[139.7572638680365,35.677971063218656],[139.75746562190946,35.67786103311636],[139.7576594447178,35.67774180004646],[139.75784471299968,35.67761374754109],[139.75802083081018,35.67747728750146],[139.75818723163846,35.67733285887298],[139.75834338022972,35.67718092623328],[139.7584887743073,35.67702197829783],[139.75862294618798,35.67685652634792],[139.75874546428662,35.67668510258604],[139.75885593450428,35.67650825842396],[139.75895400149597,35.67632656270901],[139.7590393498136,35.67614059989434],[139.75911170492077,35.67595096815889],[139.75917083407577,35.675758277483254],[139.755,35.675]]]},"properties":{"tower_id":"HO-003","sector_index":0,"azimuth":45,"band":"n77","power_dbm":33,"range_m":390.0,"fill":"#00b4d8","fill-opacity":0.25,"stroke":"#00b4d8","stroke-width":1,"stroke-opacity":0.7}},{"type":"Feature","geometry":{"type":"Polygon","coordinates":[[[139.755,35.675],[139.75407534834662,35.67157963130815],[139.7538403792809,35.67162812125209],[139.75360914031944,35.67168745737977],[139.75338237527913,35.6717574488271],[139.75316081358577,35.67183787045547],[139.75294516792772,35.67192846357594],[139.7527361319635,35.67202893678134],[139.75253437809053,35.67213896688364],[139.7523405552822,35.67225819995353],[139.7521552870003,35.67238625245891],[139.7519791691898,35.672522712498534],[139.75181276836153,35.672667141127015],[139.75165661977027,35.67281907376672],[139.7515112256927,35.672978021702164],[139.751377053812,35.673143473652075],[139.75125453571337,35.67331489741395],[139.7511440654957,35.673491741576036],[139.75104599850403,35.67367343729099],[139.75096065018639,35.673859400105655],[139.75088829507922,35.67404903184111],[139.75082916592422,35.67424172251674],[139.755,35.675]]]},"properties":{"tower_id":"HO-003","sector_index":1,"azimuth":225,"band":"n77","power_dbm":33,"range_m":390.0,"fill":"#00b4d8","fill-opacity":0.25,"stroke":"#00b4d8","stroke-width":1,"stroke-opacity":0.7}}]}