{"type":"FeatureCollection","features":[{"type":"Feature","geometry":{"type":"LineString","coordinates":[[139.6978034,35.6947483],[139.6974152,35.6933444],[139.6964641,35.6922783],[139.69495,35.69155],[139.6934359,35.6908217],[139.6924848,35.6897556],[139.6920966,35.6883517]]},"properties":{"cell_a":"SJK-001","cell_b":"SJK-002","distance_m":735.2,"boundary_type":"intra-site","stroke":"#ff5252","stroke-width":2,"stroke-opacity":0.85}},{"type":"Feature","geometry":{"type":"LineString","coordinates":[[139.7008808,35.6815939],[139.7009319,35.6839103],[139.702005,35.6858457],[139.7041,35.6874],[139.706195,35.6889543],[139.7072681,35.6908897],[139.7073192,35.6932061]]},"properties":{"cell_a":"SJK-001","cell_b":"SJK-003","distance_m":1183.4,"boundary_type":"intra-site","stroke":"#ff5252","stroke-width":2,"stroke-opacity":0.85}},{"type":"Feature","geometry":{"type":"LineString","coordinates":[[139.7049167,35.6901882],[139.7030621,35.6904645],[139.7016232,35.6912518],[139.7006,35.69255],[139.6995768,35.6938482],[139.6981379,35.6946355],[139.6962833,35.6949118]]},"properties":{"cell_a":"SJK-001","cell_b":"SJK-004","distance_m":789.5,"boundary_type":"intra-site","stroke":"#ff5252","stroke-width":2,"stroke-opacity":0.85}},{"type":"Feature","geometry":{"type":"LineString","coordinates":[[139.6947773,35.6803457],[139.6952167,35.6840659],[139.697241,35.6870674],[139.70085,35.68935],[139.704459,35.6916326],[139.7064833,35.6946341],[139.7069227,35.6983543]]},"properties":{"cell_a":"SJK-002","cell_b":"SJK-003","distance_m":1909.1,"boundary_type":"intra-site","stroke":"#ff5252","stroke-width":2,"stroke-opacity":0.85}},{"type":"Feature","geometry":{"type":"LineString","coordinates":[[139.6988133,35.6889399],[139.6973469,35.6906201],[139.6968592,35.6924734],[139.69735,35.6945],[139.6978408,35.6965266],[139.6973531,35.6983799],[139.6958867,35.7000601]]},"properties":{"cell_a":"SJK-002","cell_b":"SJK-004","distance_m":1055.3,"boundary_type":"intra-site","stroke":"#ff5252","stroke-width":2,"stroke-opacity":0.85}},{"type":"Feature","geometry":{"type":"LineString","coordinates":[[139.714036,35.6937943],[139.7121302,35.6917542],[139.7096182,35.6906061],[139.7065,35.69035],[139.7033818,35.6900939],[139.7008698,35.6889458],[139.698964,35.6869057]]},"properties":{"cell_a":"SJK-003","cell_b":"SJK-004","distance_m":1312.6,"boundary_type":"intra-site","stroke":"#ff5252","stroke-width":2,"stroke-opacity":0.85}},{"type":"Feature","geometry":{"type":"LineString","coordinates":[[139.6953753,35.6812919],[139.6996657,35.6813936],[139.703324,35.6801963],[139.70635,35.6777],[139.709376,35.6752037],[139.7130343,35.6740064],[139.7173247,35.6741081]]},"properties":{"cell_a":"SJK-003","cell_b":"SBY-003","distance_m":1797.9,"boundary_type":"inter-site","stroke":"#ffca28","stroke-width":2,"stroke-opacity":0.85}},{"type":"Feature","geometry":{"type":"LineString","coordinates":[[139.6995051,35.6567207],[139.7000115,35.6574069],[139.7007432,35.6578334],[139.7017,35.658],[139.7026568,35.6581666],[139.7033885,35.6585931],[139.7038949,35.6592793]]},"properties":{"cell_a":"SBY-001","cell_b":"SBY-002","distance_m":409.7,"boundary_type":"intra-site","stroke":"#ff5252","stroke-width":2,"stroke-opacity":0.85}},{"type":"Feature","geometry":{"type":"LineString","coordinates":[[139.7093786,35.6637183],[139.7065699,35.6631689],[139.7039604,35.6635461],[139.70155,35.66485],[139.6991396,35.6661539],[139.6965301,35.6665311],[139.6937214,35.6659817]]},"properties":{"cell_a":"SBY-001","cell_b":"SBY-003","distance_m":1209.5,"boundary_type":"intra-site","stroke":"#ff5252","stroke-width":2,"stroke-opacity":0.85}},{"type":"Feature","geometry":{"type":"LineString","coordinates":[[139.7128736,35.6634976],[139.7095584,35.662262],[139.7062172,35.6622127],[139.70285,35.66335],[139.6994828,35.6644873],[139.6961416,35.664438],[139.6928264,35.6632024]]},"properties":{"cell_a":"SBY-002","cell_b":"SBY-003","distance_m":1525.3,"boundary_type":"intra-site","stroke":"#ff5252","stroke-width":2,"stroke-opacity":0.85}},{"type":"Feature","geometry":{"type":"LineString","coordinates":[[139.6983911,35.6433455],[139.7008882,35.6465694],[139.7044245,35.6485376],[139.709,35.64925],[139.7135755,35.6499624],[139.7171118,35.6519306],[139.7196089,35.6551545]]},"properties":{"cell_a":"SBY-002","cell_b":"HO-002","distance_m":1950.8,"boundary_type":"inter-site","stroke":"#ffca28","stroke-width":2,"stroke-opacity":0.85}},{"type":"Feature","geometry":{"type":"LineString","coordinates":[[139.7386901,35.6675211],[139.7396297,35.6646995],[139.7391663,35.6620425],[139.7373,35.65955],[139.7354337,35.6570575],[139.7349703,35.6544005],[139.7359099,35.6515789]]},"properties":{"cell_a":"MNT-001","cell_b":"MNT-002","distance_m":1493.9,"boundary_type":"intra-site","stroke":"#ff5252","stroke-width":2,"stroke-opacity":0.85}},{"type":"Feature","geometry":{"type":"LineString","coordinates":[[139.7535958,35.6607826],[139.7511921,35.6607276],[139.7491435,35.6614001],[139.74745,35.6628],[139.7457565,35.6641999],[139.7437079,35.6648724],[139.7413042,35.6648174]]},"properties":{"cell_a":"MNT-001","cell_b":"MNT-003","distance_m":1007.2,"boundary_type":"intra-site","stroke":"#ff5252","stroke-width":2,"stroke-opacity":0.85}},{"type":"Feature","geometry":{"type":"LineString","coordinates":[[139.7417853,35.6631331],[139.7423177,35.6616861],[139.7421226,35.6603084],[139.7412,35.659],[139.7402774,35.6576916],[139.7400823,35.6563139],[139.7406147,35.6548669]]},"properties":{"cell_a":"MNT-001","cell_b":"MNT-004","distance_m":772.0,"boundary_type":"intra-site","stroke":"#ff5252","stroke-width":2,"stroke-opacity":0.85}},{"type":"Feature","geometry":{"type":"LineString","coordinates":[[139.7441057,35.6537616],[139.7407624,35.6565281],[139.7391772,35.6598576],[139.73935,35.66375],[139.7395228,35.6676424],[139.7379376,35.6709719],[139.7345943,35.6737384]]},"properties":{"cell_a":"MNT-002","cell_b":"MNT-003","distance_m":1989.4,"boundary_type":"intra-site","stroke":"#ff5252","stroke-width":2,"stroke-opacity":0.85}},{"type":"Feature","geometry":{"type":"LineString","coordinates":[[139.7322952,35.6561121],[139.731888,35.6574866],[139.7321562,35.658766],[139.7331,35.65995],[139.7340438,35.661134],[139.734312,35.6624134],[139.7339048,35.6637879]]},"properties":{"cell_a":"MNT-002","cell_b":"MNT-004","distance_m":722.5,"boundary_type":"intra-site","stroke":"#ff5252","stroke-width":2,"stroke-opacity":0.85}},{"type":"Feature","geometry":{"type":"LineString","coordinates":[[139.7376895,35.6693505],[139.7406255,35.6679585],[139.742479,35.6659083],[139.74325,35.6632],[139.744021,35.6604917],[139.7458745,35.6584415],[139.7488105,35.6570495]]},"properties":{"cell_a":"MNT-003","cell_b":"MNT-004","distance_m":1420.5,"boundary_type":"intra-site","stroke":"#ff5252","stroke-width":2,"stroke-opacity":0.85}},{"type":"Feature","geometry":{"type":"LineString","coordinates":[[139.7606387,35.6617726],[139.7581588,35.6638913],[139.7570126,35.6664172],[139.7572,35.66935],[139.7573874,35.6722828],[139.7562412,35.6748087],[139.7537613,35.6769274]]},"properties":{"cell_a":"MNT-003","cell_b":"CTR-002","distance_m":1500.1,"boundary_type":"inter-site","stroke":"#ffca28","stroke-width":2,"stroke-opacity":0.85}},{"type":"Feature","geometry":{"type":"LineString","coordinates":[[139.7581032,35.6682938],[139.7556758,35.668503],[139.7537247,35.6694051],[139.75225,35.671],[139.7507753,35.6725949],[139.7488242,35.673497],[139.7463968,35.6737062]]},"properties":{"cell_a":"MNT-003","cell_b":"HO-003","distance_m":1022.3,"boundary_type":"inter-site","stroke":"#ffca28","stroke-width":2,"stroke-opacity":0.85}},{"type":"Feature","geometry":{"type":"LineString","coordinates":[[139.7590494,35.6775325],[139.7615568,35.6779944],[139.7638736,35.6776336],[139.766,35.67645],[139.7681264,35.6752664],[139.7704432,35.6749056],[139.7729506,35.6753675]]},"properties":{"cell_a":"CTR-001","cell_b":"CTR-002","distance_m":1076.4,"boundary_type":"intra-site","stroke":"#ff5252","stroke-width":2,"stroke-opacity":0.85}},{"type":"Feature","geometry":{"type":"LineString","coordinates":[[139.7826843,35.6868478],[139.7779699,35.6863423],[139.7737752,35.6873264],[139.7701,35.6898],[139.7664248,35.6922736],[139.7622301,35.6932577],[139.7575157,35.6927522]]},"properties":{"cell_a":"CTR-001","cell_b":"CTR-003","distance_m":1991.5,"boundary_type":"intra-site","stroke":"#ff5252","stroke-width":2,"stroke-opacity":0.85}},{"type":"Feature","geometry":{"type":"LineString","coordinates":[[139.7565138,35.6840537],[139.7590738,35.6826061],[139.7605858,35.6806215],[139.76105,35.6781],[139.7615142,35.6755785],[139.7630262,35.6735939],[139.7655862,35.6721463]]},"properties":{"cell_a":"CTR-001","cell_b":"HO-003","distance_m":1302.5,"boundary_type":"inter-site","stroke":"#ffca28","stroke-width":2,"stroke-opacity":0.85}},{"type":"Feature","geometry":{"type":"LineString","coordinates":[[139.7623644,35.6782212],[139.762417,35.6763117],[139.7616122,35.6746879],[139.75995,35.67335],[139.7582878,35.6720121],[139.757483,35.6703883],[139.7575356,35.6684788]]},"properties":{"cell_a":"CTR-002","cell_b":"HO-003","distance_m":975.6,"boundary_type":"inter-site","stroke":"#ffca28","stroke-width":2,"stroke-opacity":0.85}},{"type":"Feature","geometry":{"type":"LineString","coordinates":[[139.7860979,35.704031],[139.7820775,35.703363],[139.7783949,35.7040026],[139.77505,35.70595],[139.7717051,35.7078974],[139.7680225,35.708537],[139.7640021,35.707869]]},"properties":{"cell_a":"CTR-003","cell_b":"HO-001","distance_m":1718.2,"boundary_type":"inter-site","stroke":"#ffca28","stroke-width":2,"stroke-opacity":0.85}},{"type":"Feature","geometry":{"type":"LineString","coordinates":[[139.7157975,35.7339895],[139.7160898,35.7326131],[139.715724,35.7313666],[139.7147,35.73025],[139.713676,35.7291334],[139.7133102,35.7278869],[139.7136025,35.7265105]]},"properties":{"cell_a":"IKB-001","cell_b":"IKB-002","distance_m":713.6,"boundary_type":"intra-site","stroke":"#ff5252","stroke-width":2,"stroke-opacity":0.85}}]}