{
  "type": "FeatureCollection",
  "features": [
    {
      "type": "Feature",
      "geometry": {
        "type": "LineString",
        "coordinates": [
          [
            139.7016,
            35.6581
          ],
          [
            139.701875,
            35.659875
          ],
          [
            139.70215000000002,
            35.661649999999995
          ],
          [
            139.702425,
            35.663425
          ],
          [
            139.7027,
            35.6652
          ],
          [
            139.70175,
            35.666475
          ],
          [
            139.70080000000002,
            35.66775
          ],
          [
            139.69985,
            35.669025
          ],
          [
            139.6989,
            35.6703
          ],
          [
            139.69925,
            35.675124999999994
          ],
          [
            139.6996,
            35.67995
          ],
          [
            139.69995,
            35.684775
          ],
          [
            139.7003,
            35.6896
          ],
          [
            139.70035000000001,
            35.691975
          ],
          [
            139.7004,
            35.69435
          ],
          [
            139.70045,
            35.696725
          ],
          [
            139.7005,
            35.6991
          ],
          [
            139.7013,
            35.702425000000005
          ],
          [
            139.7021,
            35.70575
          ],
          [
            139.7029,
            35.709075
          ],
          [
            139.7037,
            35.7124
          ],
          [
            139.70435,
            35.714575
          ],
          [
            139.70499999999998,
            35.716750000000005
          ],
          [
            139.70565,
            35.718925
          ],
          [
            139.7063,
            35.7211
          ],
          [
            139.70725,
            35.7232
          ],
          [
            139.7082,
            35.725300000000004
          ],
          [
            139.70915000000002,
            35.7274
          ],
          [
            139.7101,
            35.7295
          ],
          [
            139.71457500000002,
            35.73035
          ],
          [
            139.71905,
            35.7312
          ],
          [
            139.723525,
            35.73205
          ],
          [
            139.728,
            35.7329
          ],
          [
            139.730775,
            35.733025
          ],
          [
            139.73355,
            35.73315
          ],
          [
            139.73632500000002,
            35.733275000000006
          ],
          [
            139.7391,
            35.7334
          ],
          [
            139.74155000000002,
            35.734025
          ],
          [
            139.744,
            35.73465
          ],
          [
            139.74644999999998,
            35.735275
          ],
          [
            139.7489,
            35.7359
          ],
          [
            139.75189999999998,
            35.736425
          ],
          [
            139.7549,
            35.73695
          ],
          [
            139.7579,
            35.737475
          ],
          [
            139.7609,
            35.738
          ],
          [
            139.762425,
            35.735625
          ],
          [
            139.76395,
            35.73325
          ],
          [
            139.76547499999998,
            35.730875
          ],
          [
            139.767,
            35.7285
          ],
          [
            139.76805,
            35.728425
          ],
          [
            139.76909999999998,
            35.72835
          ],
          [
            139.77015,
            35.728275
          ],
          [
            139.7712,
            35.7282
          ],
          [
            139.773025,
            35.726525
          ],
          [
            139.77485000000001,
            35.72485
          ],
          [
            139.776675,
            35.723175
          ],
          [
            139.7785,
            35.7215
          ],
          [
            139.778125,
            35.71965
          ],
          [
            139.77775,
            35.7178
          ],
          [
            139.777375,
            35.71595
          ],
          [
            139.777,
            35.7141
          ],
          [
            139.7765,
            35.712475
          ],
          [
            139.776,
            35.71085
          ],
          [
            139.7755,
            35.709225
          ],
          [
            139.775,
            35.7076
          ],
          [
            139.77485000000001,
            35.706075
          ],
          [
            139.7747,
            35.70455
          ],
          [
            139.77455,
            35.703025000000004
          ],
          [
            139.7744,
            35.7015
          ],
          [
            139.77367500000003,
            35.69905
          ],
          [
            139.77295,
            35.696600000000004
          ],
          [
            139.772225,
            35.69415
          ],
          [
            139.7715,
            35.6917
          ],
          [
            139.77035,
            35.689074999999995
          ],
          [
            139.7692,
            35.686449999999994
          ],
          [
            139.76805,
            35.683825
          ],
          [
            139.7669,
            35.6812
          ],
          [
            139.7659,
            35.679649999999995
          ],
          [
            139.7649,
            35.6781
          ],
          [
            139.7639,
            35.67655
          ],
          [
            139.7629,
            35.675
          ],
          [
            139.761525,
            35.672775
          ],
          [
            139.76015,
            35.67055
          ],
          [
            139.75877499999999,
            35.668324999999996
          ],
          [
            139.7574,
            35.6661
          ],
          [
            139.75735,
            35.66355
          ],
          [
            139.7573,
            35.661
          ],
          [
            139.75725,
            35.65845
          ],
          [
            139.7572,
            35.6559
          ],
          [
            139.75480000000002,
            35.6533
          ],
          [
            139.75240000000002,
            35.6507
          ],
          [
            139.75,
            35.6481
          ],
          [
            139.7476,
            35.6455
          ],
          [
            139.74535,
            35.641275
          ],
          [
            139.7431,
            35.63705
          ],
          [
            139.74085,
            35.632825
          ],
          [
            139.7386,
            35.6286
          ],
          [
            139.73602499999998,
            35.626374999999996
          ],
          [
            139.73345,
            35.62415
          ],
          [
            139.730875,
            35.621925000000005
          ],
          [
            139.7283,
            35.6197
          ],
          [
            139.72562499999998,
            35.621300000000005
          ],
          [
            139.72295,
            35.6229
          ],
          [
            139.72027500000002,
            35.6245
          ],
          [
            139.7176,
            35.6261
          ],
          [
            139.717125,
            35.627725
          ],
          [
            139.71665000000002,
            35.62935
          ],
          [
            139.716175,
            35.630975
          ],
          [
            139.7157,
            35.6326
          ],
          [
            139.715525,
            35.635974999999995
          ],
          [
            139.71535,
            35.63934999999999
          ],
          [
            139.715175,
            35.642725
          ],
          [
            139.715,
            35.6461
          ],
          [
            139.71165000000002,
            35.6491
          ],
          [
            139.7083,
            35.6521
          ],
          [
            139.70495,
            35.6551
          ],
          [
            139.7016,
            35.6581
          ]
        ]
      },
      "properties": {
        "name": "Yamanote Line",
        "operator": "JR East",
        "type": "metro_rail",
        "color": "#9ACD32"
      }
    },
    {
      "type": "Feature",
      "geometry": {
        "type": "LineString",
        "coordinates": [
          [
            139.7669,
            35.6812
          ],
          [
            139.76782,
            35.683299999999996
          ],
          [
            139.76874,
            35.685399999999994
          ],
          [
            139.76966,
            35.6875
          ],
          [
            139.77058,
            35.6896
          ],
          [
            139.7715,
            35.6917
          ],
          [
            139.7702,
            35.692859999999996
          ],
          [
            139.7689,
            35.694019999999995
          ],
          [
            139.7676,
            35.69518
          ],
          [
            139.7663,
            35.69634
          ],
          [
            139.765,
            35.6975
          ],
          [
            139.76102,
            35.69654
          ],
          [
            139.75704,
            35.69558
          ],
          [
            139.75306,
            35.69462
          ],
          [
            139.74908,
            35.69366
          ],
          [
            139.7451,
            35.6927
          ],
          [
            139.73614,
            35.692080000000004
          ],
          [
            139.72718,
            35.69146
          ],
          [
            139.71822,
            35.69084
          ],
          [
            139.70926,
            35.69022
          ],
          [
            139.7003,
            35.6896
          ]
        ]
      },
      "properties": {
        "name": "Chuo Line",
        "operator": "JR East",
        "type": "commuter_rail",
        "color": "#F15A22"
      }
    },
    {
      "type": "Feature",
      "geometry": {
        "type": "LineString",
        "coordinates": [
          [
            139.7742,
            35.6761
          ],
          [
            139.77613333333335,
            35.67473333333333
          ],
          [
            139.77806666666666,
            35.673366666666666
          ],
          [
            139.78,
            35.672
          ],
          [
            139.781,
            35.67033333333333
          ],
          [
            139.78199999999998,
            35.66866666666667
          ],
          [
            139.783,
            35.667
          ],
          [
            139.78233333333333,
            35.66466666666667
          ],
          [
            139.78166666666667,
            35.66233333333333
          ],
          [
            139.781,
            35.66
          ],
          [
            139.77933333333334,
            35.65833333333333
          ],
          [
            139.77766666666668,
            35.656666666666666
          ],
          [
            139.776,
            35.655
          ],
          [
            139.77333333333334,
            35.653666666666666
          ],
          [
            139.77066666666667,
            35.65233333333334
          ],
          [
            139.768,
            35.651
          ],
          [
            139.76466666666667,
            35.651
          ],
          [
            139.76133333333334,
            35.651
          ],
          [
            139.758,
            35.651
          ],
          [
            139.75466666666668,
            35.65166666666667
          ],
          [
            139.75133333333332,
            35.65233333333333
          ],
          [
            139.748,
            35.653
          ],
          [
            139.74533333333332,
            35.654333333333334
          ],
          [
            139.74266666666668,
            35.65566666666666
          ],
          [
            139.74,
            35.657
          ],
          [
            139.73833333333334,
            35.65933333333333
          ],
          [
            139.73666666666668,
            35.66166666666667
          ],
          [
            139.735,
            35.664
          ],
          [
            139.73466666666667,
            35.666666666666664
          ],
          [
            139.73433333333335,
            35.669333333333334
          ],
          [
            139.734,
            35.672
          ],
          [
            139.73533333333333,
            35.67466666666667
          ],
          [
            139.73666666666668,
            35.67733333333333
          ],
          [
            139.738,
            35.68
          ],
          [
            139.74066666666667,
            35.682
          ],
          [
            139.74333333333334,
            35.684
          ],
          [
            139.746,
            35.686
          ],
          [
            139.74933333333334,
            35.687
          ],
          [
            139.75266666666667,
            35.688
          ],
          [
            139.756,
            35.689
          ],
          [
            139.759,
            35.68866666666667
          ],
          [
            139.762,
            35.68833333333333
          ],
          [
            139.765,
            35.688
          ],
          [
            139.7673333333333,
            35.68666666666667
          ],
          [
            139.76966666666667,
            35.68533333333333
          ],
          [
            139.772,
            35.684
          ],
          [
            139.77273333333332,
            35.68136666666666
          ],
          [
            139.77346666666668,
            35.678733333333334
          ],
          [
            139.7742,
            35.6761
          ]
        ]
      },
      "properties": {
        "name": "Shuto Expressway C1",
        "operator": "Metropolitan Expressway",
        "type": "expressway",
        "color": "#4A90D9"
      }
    }
  ]
}