{
  "type": "FeatureCollection",
  "metadata": {
    "source": "Synthetic — Tokyo Metropolitan Government road volume surveys",
    "timestamp": "2026-04-30T23:54:01.013114Z"
  },
  "features": [
    {
      "type": "Feature",
      "geometry": {
        "type": "LineString",
        "coordinates": [
          [
            139.6986,
            35.6509
          ],
          [
            139.7016,
            35.6581
          ],
          [
            139.7027,
            35.6652
          ],
          [
            139.6947,
            35.683
          ],
          [
            139.7003,
            35.6896
          ],
          [
            139.7037,
            35.7124
          ],
          [
            139.7101,
            35.7295
          ]
        ]
      },
      "properties": {
        "name": "Meiji-dori",
        "traffic_density": 3200,
        "peak_hour_density": 4800,
        "unit": "vehicles/hour",
        "road_type": "arterial",
        "color": "#E74C3C",
        "congestion_level": "medium"
      }
    },
    {
      "type": "Feature",
      "geometry": {
        "type": "LineString",
        "coordinates": [
          [
            139.6903,
            35.6896
          ],
          [
            139.7003,
            35.6896
          ],
          [
            139.72,
            35.693
          ],
          [
            139.745,
            35.6957
          ],
          [
            139.7574,
            35.695
          ],
          [
            139.765,
            35.696
          ],
          [
            139.7744,
            35.7015
          ]
        ]
      },
      "properties": {
        "name": "Yasukuni-dori",
        "traffic_density": 2800,
        "peak_hour_density": 4200,
        "unit": "vehicles/hour",
        "road_type": "arterial",
        "color": "#E67E22",
        "congestion_level": "medium"
      }
    },
    {
      "type": "Feature",
      "geometry": {
        "type": "LineString",
        "coordinates": [
          [
            139.6812,
            35.646
          ],
          [
            139.7016,
            35.6581
          ],
          [
            139.708,
            35.664
          ],
          [
            139.72,
            35.671
          ],
          [
            139.7321,
            35.675
          ],
          [
            139.74,
            35.678
          ],
          [
            139.754,
            35.677
          ],
          [
            139.7669,
            35.6812
          ]
        ]
      },
      "properties": {
        "name": "Aoyama-dori (Route 246)",
        "traffic_density": 3800,
        "peak_hour_density": 5600,
        "unit": "vehicles/hour",
        "road_type": "national_route",
        "color": "#9B59B6",
        "congestion_level": "high"
      }
    },
    {
      "type": "Feature",
      "geometry": {
        "type": "LineString",
        "coordinates": [
          [
            139.7157,
            35.6326
          ],
          [
            139.715,
            35.6461
          ],
          [
            139.7175,
            35.658
          ],
          [
            139.72,
            35.671
          ],
          [
            139.7244,
            35.685
          ],
          [
            139.725,
            35.7
          ]
        ]
      },
      "properties": {
        "name": "Gaien-nishi-dori",
        "traffic_density": 2400,
        "peak_hour_density": 3600,
        "unit": "vehicles/hour",
        "road_type": "arterial",
        "color": "#1ABC9C",
        "congestion_level": "low"
      }
    },
    {
      "type": "Feature",
      "geometry": {
        "type": "LineString",
        "coordinates": [
          [
            139.7574,
            35.6661
          ],
          [
            139.754,
            35.677
          ],
          [
            139.7451,
            35.6927
          ],
          [
            139.74,
            35.698
          ],
          [
            139.735,
            35.705
          ],
          [
            139.738,
            35.712
          ]
        ]
      },
      "properties": {
        "name": "Sotobori-dori",
        "traffic_density": 2100,
        "peak_hour_density": 3200,
        "unit": "vehicles/hour",
        "road_type": "arterial",
        "color": "#3498DB",
        "congestion_level": "low"
      }
    },
    {
      "type": "Feature",
      "geometry": {
        "type": "LineString",
        "coordinates": [
          [
            139.645,
            35.61
          ],
          [
            139.67,
            35.62
          ],
          [
            139.6812,
            35.646
          ],
          [
            139.695,
            35.653
          ],
          [
            139.7016,
            35.6581
          ]
        ]
      },
      "properties": {
        "name": "Route 246 (Tamagawa-dori)",
        "traffic_density": 3500,
        "peak_hour_density": 5200,
        "unit": "vehicles/hour",
        "road_type": "national_route",
        "color": "#F39C12",
        "congestion_level": "high"
      }
    }
  ]
}